Name,Email,Phone,City,State,Zip,Website
"2DARESCUE",karen@2darescue.org,480-229-9530,"Phoenix",AZ,85034,
"2nd Chance Dog Rescue",cdczar96@aol.com,,"Queen Creek",AZ,85242,
"4 The Love of German Shepherds Rescue",ashtonshepherds@aol.com,,"Phoenix",AZ,85331,
"ABC (Animals Benefit Club of Arizona, Inc.)",info@animalsbenefitclub.com,(602) 867-2169,"Phoenix",AZ,85032,
"Adorable Dog Rescue",adorabledogrescue@yahoo.com,Please email us.,"Phoenix",AZ,85016,
"AJs Best Friends Persian & Himalayan Rescue",ajbfcats@gmail.com,,"Ahwatukee",AZ,85233,
"All About Animals Rescue",allaboutanimalsaz@gmail.com,,"Phoenix",AZ,85053,
"Almost Home Bulldog Rescue",almosthomebulldogs@gmail.com,(480) 665-9524,"Tempe",AZ,85284,
"Almost There Foster Care",info@atfcaz.org,,"Phoenix",AZ,85016,
"Animal Advocates Rescue Fund",tonielich@aarfus.org,,"Phoenix",AZ,85041,
"Animal Care And Welfare Facility",ccortese@bullheadcity.com,928-763-6000,"Bullhead City",AZ,86442,
"Animal League of Green Valley",candkkell@hotmail.com,520-625-3170,"Green Valley",AZ,85614,
"Animal Loving Friends",alfrescue@hotmail.com,,"Tempe",AZ,85284,
"Animal Rescue , Transport , and Adoption",artarescue@yahoo.com,520 255 5375,"Thatcher",AZ,85552,
"Animal Rescue Friends, Ltd.",admin@animalrescuefriends.org,623-428-9119,"Surprise",AZ,85374,
"Animals' Crusaders",rr.tucson09@gmail.com,520-798-6569,"Tucson",AZ,85751,
"Any Rat Rescue",info@anyratrescue.org,480-663-3338,"Phoenix",AZ,85053,
"Arizona Animal Welfare League & SPCA",adoptions1@aawl.org,602-273-6852,"Phoenix",AZ,85034,
"Arizona Beagle Rescue",adoptions@azbeaglerescue.com,(623) 977-1355,"Phoenix",AZ,85335,
"Arizona Boston Terrier Rescue",info@azbtrescue.org,,"Phoenix",AZ,85269,
"Arizona Cattle Dog Rescue",acdr@arizonacattledogrescue.org,480-442-ACDR (2237),"Scottsdale",AZ,85262,
"Arizona Chihuahua Rescue",rescue@azchihuahuarescue.org,480-844-2447,"Mesa",AZ,85208,
"Arizona Desert Rotti & Pals Rescue",azdesertrottis@aol.com,,"Tucson",AZ,85731,
"Arizona Equine Rescue Org",info@azequinerescue.org,623.465.1519,"Scottsdale",AZ,85266,
"Arizona Greyhound Rescue",adoption@azgreyhoundrescue.org,(520) 886-7411,"Tucson",AZ,85749,
"Arizona Labrador and Giant Breed Rescue",adoptions@azlabsandgiants.org,602-307-5227,"Phoenix",AZ,85068,
"Arizona Pug Adoption & Rescue Network",info@aparn.org,(480) 964-3126,"Mesa",AZ,85203,
"Arizona Shih Tzu and Small Breed Rescue",duffsonni@aol.com,,"Phoenix",AZ,85032,
"Arizona's PiggiePoo Rescue, Inc.",info@piggiepoo.org,602-412-4952,"Phoenix",AZ,85022,
"Aussie And Friends Rescue",jane@aussiefriendsrescue.com,602-930-9384,"Payson",AZ,85541,
"AZ CARE",adopt@azcarerescue.org,480-987-2212,"Queen Creek",AZ,85142,
"AZ Cavalier Rescue",azcavalierrescue@gmail.com,(602) 397-4744,"Phoenix",AZ,85029,
"AZ Cocker Rescue",azcockerrescue@aol.com,,"Scottsdale",AZ,85254,
"AZ Dog Adoptions",azdogadoptions@gmail.com,480-500-9620,"Phoenix",AZ,85009,
"AZ Furry Friends Rescue Foundation",azfurryfriends@gmail.com,(602) 882-9535,"Phoenix",AZ,85013,
"AZ Happy Tails Animal Rescue",dogadoptions@happytailsaz.org,,"Chandler",AZ,85225,
"AZ Maine Coon Cat Rescue",azmccr@gmail.com,4809628139,"Mesa",AZ,85211,
"AZ Prussian Snailhound Dog Rescue",prussian.snailhound@gmail.com,(602) 295-4518,"Phoenix",AZ,85028,
"AZ Saint Bernard Rescue",corinthians3418@aol.com,602-920-1826,"Phoenix",AZ,85027,
"AZ Small Dog Rescue",info@azsmalldog.org,602-944-2440,"Phoenix",AZ,85021,
"AZ Sugar Glider Rescue",azsgrescue@gmail.com,(480) 238-6063,"Phoenix",AZ,85053,
"AZK9",azk9org@gmail.com,,"Peoria",AZ,85381,
"BARK (Baby Animal Rescue Koalition)",barkntucson@aol.com,,"Tucson",AZ,85740,
"Benson Animal Shelter",azdog85602@gmail.com,520-586-3600,"Benson",AZ,85602,
"Better Days Rescue",info@betterdaysrescue.org,,"Scottsdale",AZ,85261,
"Big Heads Bigger Hearts",bigheadsbiggerhearts@gmail.com,,"Tucson",AZ,85716,
"Big Hearts Animal Welfare",info@bigheartsaz.org,,"Mesa",AZ,85206,
"Bisbee Animal Shelter",bisbeeanimals@gmail.com,(520) 432-6020,"Bisbee",AZ,85603,
"Blackhat Humane Society",blackhathumane@gmail.com,928-245-3890,"Chinle",AZ,86503,
"Border Animal Rescue",borderanimalrescue@gmail.com,(520)432-7964,"Sierra Vista",AZ,85635,
"Bully Pride of Arizona Bully Breed Advocacy",bullyprideofaz@gmail.com,(480) 330-1242,"Phoenix",AZ,85028,
"Cactus Cats Rescue, Inc.",petfinder-inquiry@cactuscatsrescue.net,(480) 814-8801,"Phoenix",AZ,85044,
"Canine Rescue Coalition (AZ Mastiff Rescue)",azmastiffrescue@yahoo.com,,"Glendale",AZ,85308,
"CARE FOR THE HORSES",careforthehorses@msn.com,520-378-0896,"Sierra Vista",AZ,85636,
"Caring for Canines",sarahduncs@gmail.com,(602) 573-3141,"Phoenix",AZ,85028,
"Carrie On Rescue",carrieonrescuers@hotmail.com,480-603-7680,"Gilbert",AZ,85233,
"Cat A Do Cat Co-Op",info@catado.org,,"Mesa",AZ,85212,
"Central Arizona Animal Rescue",mike@caaronline.org,480-209-3400,"Queen Creek",AZ,85142,
"Chance Shelter",info@chanceshelter.org,(602) 394-1595,"Surprise",AZ,85374,
"ChiLuvBug Small Dog Rescue",chiluvbug@gmail.com,,"Tucson",AZ,85710,
"Chino Valley Animal Shelter",marilu42@q.com,(928) 636-4223 x7,"Chino Valley",AZ,86323,
"Chiquita Chihuahua Rescue",chwawagal@gmail.com,,"Cave Creek",AZ,85086,
"Circle L Ranch",susanhopkins13@gmail.com,480-861-8144,"Phoenix",AZ,85018,
"Circle L Ranch Animal Rescue and Sanctuary",circlelranchdogs@gmail.com,(928) 273-7005,"Prescott Valley",AZ,86314,
"Citizens For North Phoenix Strays",badkittyts@aol.com,(602) 332-6615,"Phoenix",AZ,85027,
"Claws and Paws Rescue",info@clawsandpawsaz.org,520-389-8875,"Tucson",AZ,85741,
"Coalition of All Breed Rescue of Arizona (CABRA)",suavian@cox.net,480-874-2511,"Phoenix",AZ,85338,
"Cochise Canine Rescue",sybil85602@gmail.com,520-212-1718,"Benson",AZ,85602,
"Coconino Humane Association",kindcrew@coconinohumane.org,928-526-1076,"Flagstaff",AZ,86001,
"Cold Wet Noses Fosters",info@tucsoncoldwetnoses.com,,"Tucson",AZ,85716,
"Community Cats, Inc.",eajoannes@gmail.com,,"Prescott",AZ,86301,
"Cooper's Chance Animal Rescue",cooperschance@yahoo.com,,"Chandler",AZ,85249,
"Coppercloud Ranch Pet Rescue",coppercloudranch@cox.net,(602) 739-6696,"Scottsdale",AZ,85259,
"Dane Haven Inc.",danehavenrescue@gmail.com,6023884370,"Prescott Valley",AZ,86312,
"Desert Dogs Rescue Inc.",desert.dogs2014@gmail.com,623-256-4302,"Tonopah",AZ,85354,
"Desert Harbor Doberman Rescue of AZ",contact@azdoberescue.org,,"Phoenix",AZ,85016,
"Desert Paws Rescue",hhfwcr@outlook.com,(480) 380-5214,"Mesa",AZ,85208,
"Dewey Dog Rescue",klukis@aol.com,928-632-5292,"Dewey",AZ,86327,
"East Valley New Life Rescue",rosebud2929@aol.com,(480) 474-2467,"Apache Junction",AZ,85219,
"Fairytale Felines & Fidos",fairytalefelines@yahoo.com,,"Phoenix",AZ,85022,
"Farmanity Project",contact@farmanityproject.org,702-592-3081,"Kingman",AZ,86409,
"Fearless Kitty Rescue",info@fearlesskittyrescue.org,480-837-7777,"Fountain Hills",AZ,85268,
"Fedwell Farm Rescue, Inc.",fedwellfarm@yahoo.com,(602) 316-8919,"Pearce",AZ,85625,
"Follow Your Heart Animal Rescue",followyourheartfoundation@gmail.com,(480) 807-0085,"Mesa",AZ,85206,
"Foothills Animal Rescue",support@foothillsanimal.org,480-488-9890,"Scottsdale",AZ,85255,
"For the Luv of Paws II Inc.",cherie_rsaz@yahoo.com,(928) 897-7304,"Golden Valley",AZ,86413,
"Forever Loved Pet Sanctuary",adopt@foreverlovedpets.org,,"Scottsdale",AZ,85267,
"Four Peaks Animal Rescue",4par@desertinet.com,(480) 471-3520,"Scottsdale",AZ,85262,
"Freedom Mutts",info@freedommutts.org,,"Tempe",AZ,85283,
"Friends For Life Animal Rescue",president@azfriends.org,(480) 497-8296,"Gilbert",AZ,85234,
"Ghost Town Dog Rescue",ghosttowndogrescue@gmail.com,,"Mesa",AZ,85205,
"Gila County Rabies Control",gilacountyrabiescontrol@gilacountyaz.gov,928-425-5882,"Globe",AZ,85501,
"Good Dog Rez-Q",ambrwlf51@yahoo.com,(928) 337-2828,"St. Johns",AZ,85936,
"Great Dane Rescue of Arizona Alliance",greatdanerescueofazalliance@hotmail.com,(623) 869-0409,"Phoenix",AZ,85080,
"Gypsy Cats",gypsycatsaz@gmail.com,(928) 279-1999,"Kingman",AZ,86409,
"HALO Animal Rescue",info@halorescue.org,602-971-9222,"Phoenix",AZ,85017,
"Havanese Rescue Inc.",petfinder@havaneserescue.com,,"Phoenix",AZ,85087,
"Healing Hearts Animal Rescue and Refuge",jbrumbaugh@healingheartsaz.org,(602) 714-0241,"Cave Creek",AZ,85331,
"Hearts That Purr Feline Guardians",heartsthatpurr@outlook.com,520-297-3780,"Tucson",AZ,85740,
"Help A Dog Smile",applications@helpadogsmile.org,(480) 788-0207,"Phoenix",AZ,85029,
"Help Animals Lives Today",lottibnkr@citlink.net,1-928-692-8940,"Kingman",AZ,86401,
"High Country Puppy Rescue",highcountrypuppyrescue@gmail.com,,"Flagstaff",AZ,86001,
"Home Fur Good Animal Rescue",info@homefurgood.org,602-971-1334,"Phoenix",AZ,85028,
"Hoof and Paw Rescue Inc.",yvette@hoofandpawrescue.com,4804731456,"Cave Creek",AZ,85331,
"HOPE Animal Shelter",adams@hopeanimalshelter.net,(520) 792-9200,"Tucson",AZ,85716,
"Hope for Cats",hopeforcats@cox.net,602-295-9237,"Chandler",AZ,85248,
"Humane Society of Central Arizona",hs@humanesocietycentralaz.org,928-474-5590,"Payson",AZ,85541,
"Humane Society of Southern Arizona",petfinder@hssaz.org,520-327-6088,"Tucson",AZ,85716,
"Humane Society of the White Mountains",hswm70@hotmail.com,(928) 368-5295,"Lakeside",AZ,85929,
"Humane Society of Yuma",losteen@hsoyuma.com,(928) 782-1621,"Yuma",AZ,85365,
"Integrative Veterinary Oncology",ivo.staff@yahoo.com,602-841-0626,"Phoenix",AZ,85021,
"K-9 Friends",twotenpets@aol.com,480-844-0589,"Gilbert",AZ,85299,
"K9 Konnection",k9clips5@aol.com,(928) 232-2611,"Wickenburg",AZ,85390,
"Kitt's Kitten Rescue",info@kittskittenrescue.org,(480) 939-9017,"Mesa",AZ,85277,
"Kodiak's Place: Rescue/ Rehabilitate/ Re-Home",kodiaksplace@gmail.com,480-748-7075,"Gilbert",AZ,85234,
"La Paz County Animal Shelter",shelter@co.la-paz.az.us,928-669-8774,"Parker",AZ,85344,
"Labrador Friends of Arizona",rescueme@azlabfriends.com,,"Litchfield Park",AZ,85340,
"Lifeline Oro Valley Animal Rescue",janders@saferlifeline.org,(520) 979-2282,"Oro Valley",AZ,85737,
"Lil Bit of Love Rescue",lilbitofloverescue@gmail.com,520 869-9537,"Tucson",AZ,85741,
"Little Heart K9",laura@littleheartk9.com,(520) 471-0823,"Green Valley",AZ,85622,
"Little League Rescue",littleleaguerescue@gmail.com,520-255-1288,"Sierra Vista",AZ,85635,
"Little Rascals Rescue",bu.ter.fly@hotmail.com,(623) 210-6578,"Phoenix",AZ,85027,
"Living the Dream Rescue",samanthabrown.ltd@gmail.com,(602) 799-8827,"Phoenix",AZ,85023,
"Living Water Ranch Rescue",chartipton1@msn.com,623-386-0386,"Tonopah",AZ,85354,
"Lost Our Home Pet Foundation",adoptions@lostourhome.org,602-445-PETS (7387),"Tempe",AZ,85282,
"Lucky Angel Animal Rescue",cristina@luckyangel.org,(480) 399-1224,"Mesa",AZ,85205,
"Lulubelle Animal Rescue",lulubellerescue@gmail.com,,"Phoenix",AZ,85022,
"Luv of Dogz Fund, Inc",luvofdogzfund@aol.com,,"Scottsdale",AZ,85258,
"Mayday Pit Bull Rescue & Advocacy",info@maydaypitbullrescue.org,,"Phoenix",AZ,85024,
"Medical Animals In Need (M.A.I.N.)",medicalanimalsinneed@gmail.com,480-245-9203,"Phoenix",AZ,85031,
"MEOWness Cat Adoptions",live.love.meow@gmail.com,,"Glendale",AZ,85312,
"MildCats on Campus",bhm@asu.edu,(623) 239-2990,"Tempe",AZ,85287,
"Mini Mighty Mutts Rescue",info@minimightymutts.com,480304-5654,"Phoenix",AZ,85048,
"Miss Kittys Cat House",suezq@commspeed.net,(928) 445-5411,"Prescott",AZ,86303,
"Miss Maggie May's Rescue",missmaggiemay@cox.net,520-603-6908,"Tucson",AZ,85710,
"Mixed Up Mutts and Shepherds Too",laura@scottsdalepethotel.com,(480) 947-9636,"Phoenix",AZ,85006,
"Morning Starr Animal Sanctuary, Inc.",fran@morningstarr.org,(928) 821-2420,"Cornville",AZ,86326,
"One Dog Arizona",onedogrescued@gmail.com,(480) 430-7076,"Chandler",AZ,85224,
"Page Animal Adoption Agency",pageanimaladoption@gmail.com,928-640-1500,"Page",AZ,86040,
"Pammy's Second Chance Rescue",pammys2ndchancerescue@hotmail.com,,"Tolleson",AZ,85353,
"Paw Kindness",pawkindness@gmail.com,(480) 206-3883,"Tempe",AZ,85282,
"Paw Placement",mjandersson@cox.net,(602) 712-1599,"Scottsdale",AZ,85251,
"Paw Town Angels",pawtownangels@gmail.com,,"Phoenix",AZ,85020,
"Paws & Claws Pet Fostering",pet911@azpawsandclaws.com,,"Glendale",AZ,85301,
"Paws Patrol",pawspatrol@cox.net,(520) 207-4024,"Green Valley",AZ,85622,
"Paws Rescue Alliance",karen.pawsrescuealliance@gmail.com,(970) 208-2411,"Phoenix",AZ,85051,
"Pet Allies",fostering@petalliesaz.org,928 532-1602,"Show Low",AZ,85901,
"Peteys Playground",peteysplayground@gmail.com,(928) 713-1375,"Kirkland",AZ,86332,
"Pets Return Home",mark@petsreturnhome.org,928-793-2013,"Cottonwood",AZ,86326,
"Pima Paws For Life",info@pimapawsforlife.org,520- 867-1193,"Tucson",AZ,85705,
"Pittie Me Rescue",pittiemerescue@gmail.com,,"Gilbert",AZ,85295,
"Pound Animals Worth Saving (P.A.W.S.) Fur the Cause",poundanimals@yahoo.com,602-326-9191,"Mesa",AZ,85202,
"Poverty's Pets",info@povertyspets.org,,"Phoenix",AZ,85067,
"Pyles Of Smiles, Inc.",shellie@pylesofsmiles.com,9288990227,"Chino Valley",AZ,86323,
"R.A.I.N. Rescue",info@azrain.org,(480) 285-7322,"Chandler",AZ,85244,
"RAD Rescue Inc.",radrescueinc@gmail.com,(661) 400-5151,"Tucson",AZ,85743,
"Raven Pines Dog Rescue",ravenpines@commspeed.net,602-339-1797,"Cordes Lakes",AZ,86333,
"RESCUE",savinglivessince1995@azrescue.org,480-598-9410,"Phoenix",AZ,85044,
"Reservation Rewards",reservationrewards@hotmail.com,480 279 3956,"Queen Creek",AZ,85242,
"Robin Hood Animal Rescue",rhar4all@yahoo.com,(623) 931-7499,"Glendale",AZ,85301,
"Rockstar Canine Rescue & Sanctuary",info@rockstarrescueaz.org,(858) 876-2558,"Phoenix",AZ,85006,
"RoRescue",rorescue.tucson@gmail.com,,"Tucson",AZ,85749,
"rotten rottie rescue",rottenrottierescue@gmail.com,(480) 567-4328,"Gilbert",AZ,85296,
"Ruby Ranch Pet Rescue and Sanctuary",info@rubyranchrescue.org,602-526-9960,"Phoenix",AZ,85069,
"RUFF Rescue Tucson (Rehoming Unwanted Furry Friends)",rescuer2003@gmail.com,520-490-0401,"Tucson",AZ,85710,
"Rusty's Angels Sanctuary",rustysangelssanctuary@gmail.com,480-250-0251,"New River",AZ,85087,
"Safe Haven Animal Rescue of AZ",safe_haven_animal_rescue@live.com,,"Litchfield Park",AZ,85340,
"Safe Haven for Animals",adopt@azshfa.org,(602) 421-7120,"Scottsdale",AZ,85252,
"Sahuaro Dachshund Rescue",wiredox2@msn.com,(520) 818-1323,"Tucson",AZ,85739,
"Salt River Animal Rescue",saltriveranimalrescue@gmail.com,,"Scottsdale",AZ,85251,
"Santa Cruz County Animal Care and Control Services",jpena@co.santa-cruz.az.us,520-761-7860,"Nogales",AZ,85621,
"Santa Cruz Humane Society",schs5654@gmail.com,520-287-5654,"Nogales",AZ,85621,
"Save Animals From Euthanasia Inc.",azsafedogs@hotmail.com,e-mail us for more info,"Apache Junction",AZ,85278,
"Save the Cats Arizona",katrina@savethecatsaz.org,,"Mesa",AZ,85214,
"Save The Pets AZ",savethepets@ymail.com,,"Tucson",AZ,85701,
"Saving At Risk Animals",sararescue2012@gmail.com,520-499-0546,"Tucson",AZ,85731,
"Saving One Life",info@savingonelife.org,602.715.2700,"Chandler",AZ,85249,
"Saving Paws",sprazinfo@gmail.com,(480) 737-6089,"Glendale",AZ,85308,
"Sierra Vista Animal Control",phaydra.adams@sierravistaaz.gov,(520) 458-4151,"Sierra Vista",AZ,85635,
"Smiling Dog Rescue",smilingdogrescue@gmail.com,520-977-8000,"Tucson",AZ,85713,
"sol.DOG Tucson, LLC Rescue Division",adopt@soldogtucson.com,520-255-1696,"Tucson",AZ,85705,
"SOS Cat Rescue AZ",info@soscatrescueaz.org,520-445-3889,"Tucson",AZ,85743,
"Southern Arizona Beagle Rescue",adoption@soazbeaglerescue.com,(520) 247-7720,"Tucson",AZ,85733,
"Southern Arizona Greyhound Adoption",maryagr@cox.net,(520) 955-7421,"Tucson",AZ,85712,
"Standing Proud Pit Bull Rescue",info@standingproudpitbulls.org,,"Fountain Hills",AZ,85268,
"Stealing Hearts Rescue",azbullygirl@hotmail.com,602-686-4158,"Glendale",AZ,85311,
"Sun Valley Animal Shelter",contact@sunvalleypets.org,(623) 872-7941,"Glendale",AZ,85307,
"Sunshine Dog Rescue",sunshinedogrescue@yahoo.com,,"Phoenix",AZ,85024,
"The Ark Cat Sanctuary/Cheri's Cat Rescue",cheriscatrescue@cableone.net,(928) 308-4599,"Prescott Valley",AZ,86314,
"The Hermitage Cat Shelter",adoptions@hermitagecatshelter.org,520-571-7839,"Tucson",AZ,85711,
"The Litter League (Rescue League)",vlintz@davisp.com,(602) 740-8805,"Phoenix",AZ,85064,
"The Pet Knot",thepetknot@gmail.com,,"Phoenix",AZ,85024,
"The Puppy Mamma",sandy@thepuppymamma.com,(480) 688-6969,"Apache Junction",AZ,85119,
"The Sanctuary Project",eringreenwood@frontier.com,800-691-9168,"Tucson",AZ,85716,
"Tombstone Small Animal Shelter",emayperry@gmail.com,(520) 457-2545,"Tombstone",AZ,85638,
"Tuba City Humane Society",tubacityhumane@gmail.com,(928) 793-2364,"Tuba City",AZ,86045,
"Tucson CARES",kismettucson@gmail.com,520-990-8912,"Tucson",AZ,85716,
"Tucson Parrot Rescue",tucsonparrotrescue@gmail.com,520-747-0554,"Tucson",AZ,85704,
"Tucson2Tails",tucson2tails@gmail.com,(520) 343-0327,"Tucson",AZ,85732,
"Tukee Cat Lady",realady@cox.net,,"Phoenix",AZ,85048,
"Underdog Rescue of Az",info@underdogaz.com,4805539311,"Chandler",AZ,85249,
"United Animal Friends",uafdogs@gmail.com,(928) 778-2924,"Prescott",AZ,86304,
"Valley Dogs",vdr-petfinder@valleydogs.org,(480) 898-3647,"Gilbert",AZ,85299,
"Valley Humane Society Inc.",valleyhumane@yahoo.com,520-836-0904,"Casa Grande",AZ,85230,
"Valley of the Sun Giant Schnauzer Rescue",phxgsrescue@hotmail.com,,"Phoenix",AZ,85050,
"VJ Ranch",cowgirlvalerie@hotmail.com,(623)465-4835,"New River",AZ,85087,
"W.O.W Dog Rescue",info@wowdogrescue.org,(480) 628-5058,"Chandler",AZ,85244,
"Waggin Tail Chihuahua Rescue",waggintailchirescue@gmail.com,888-410-3688,"Mesa",AZ,85210,
"We're The Cat's Meow Pet Rescue",azcatsmeow@gmail.com,480-278-9744,"Gilbert",AZ,85233,
"Western Arizona Humane Society",adoptions@westernarizonahumane.org,(928) 855-5083,"Lake Havasu City",AZ,86404,
"Westie & Friends AZ Rescue, Inc",shampton5@cox.net,,"Mesa",AZ,85203,
"Westie Rescue of Arizona",westierescueaz@aol.com,,"Cave Creek",AZ,85327,
"Where Wolves Rescue",pangaya@msn.com,(623) 546-9653,"Surprise",AZ,85387,
"Yorkie Luv Rescue",yorkieluvrescue@yahoo.com,,"Goodyear",AZ,85338,