Name,Email,Phone,City,State,Zip,Website
"1 Lucky Dog Rescue, Inc.",jessie@1luckydogrescue.com,(786) 486-4188,"Hialeah",FL,33017,
"100Plus Animal Rescue, INC.",100plusabandoneddogs@gmail.com,1-877-506-8100 Ext. 1,"Wilton Manors",FL,33305,
"4 Lucky Dogs Pet Rescue, Inc.",4luckydogspetrescue@gmail.com,,"Sarasota",FL,34236,
"A Better Life - Pet Rescue",info@betterlifepets.com,,"Ocoee",FL,34761,
"A Better Life Rescue, Inc",abetterliferescue@bellsouth.net,(305) 978-0059,"Pembroke Pines",FL,33082,
"A Cause 4 Paws Rescue",info@acause4pawsrescue.org,407 810 3547,"Orlando",FL,32819,
"A Forever Home Animal Rescue, Inc",lmasters@cfl.rr.com,(407) 221-1855,"Tavares",FL,32778,
"A Promised Land Animal Rescue",promisedlandanimals@yahoo.com,813-610-2275,"Tampa",FL,33615,
"A Roof for Roofus Rescue",aroofforroofusrescue@gmail.com,(239) 220-2622,"Fort Myers",FL,33901,
"A Second Chance Puppies and Kittens Rescue",info@asecondchancerescue.org,561-333-1100,"Royal Palm Beach",FL,33421,
"Abandoned Pet Rescue",apr954@aol.com,954-728-9010,"Fort Lauderdale",FL,33304,
"Abby's Little Friends Rescue",website@abbyslittlfriends.com,(239) 234-6159,"Naples",FL,34104,
"Abbys Animal Rescue",abbylynnblum@gmail.com,(321) 303-7076,"Osteen",FL,32764,
"Adopt A Rescued Pet Inc.",aarpirescue@yahoo.com,352 795-9550,"Inverness",FL,34453,
"Adopt A Stray",info@adoptastray.ws,954-966-8382,"Hallandale",FL,33008,
"Adoptable Greythounds of Florida Inc.",adoptablegreythoundsofflorida@yahoo.com,(573) 535-4812,"North Port",FL,34286,
"AHHHHAINC Animals Helping Humans & Humans Helping Animals",ahhhhainc@yahoo.com,352-505-0019,"Newberry",FL,32669,
"Akita Rescue Society of Florida",arsf@juno.com,(904) 398-5786,"Jacksonville",FL,32207,
"Alachua County Animal Services",sclontz@alachuacounty.us,352-264-6870,"Gainesville",FL,32609,
"Alachua County Humane Society",info@alachuahumane.org,352-373-5855,"Gainesville",FL,32609,
"Alaqua Animal Refuge",adoptions@alaquaanimalrefuge.org,850-880-6399,"Freeport",FL,32439,
"All American Dachshund Rescue",allamericandachshundrescue@gmail.com,,"Sarasota",FL,34231,
"All Cats Healthcare Clinic",shane@allcatshealthcare.com,352-376-2287,"Gainesville",FL,32601,
"All For One Pet Rescue, Inc.",info@allforonepetrescue.org,561-228-4550,"Royal Palm Beach",FL,33421,
"All Kitty Korner",landerson53@tampabay.rr.com,727-421-5505,"Palmetto",FL,34221,
"Almost Home Dog Rescue, Inc",almosthomerescue@gmail.com,941-704-4765,"Terra Ceia",FL,34250,
"Amazing Grace Bully Rescue",amazinggracebullyrescue@gmail.com,(850) 723-2037,"Pensacola",FL,32526,
"Amber's Animal Outreach",ambersanimaloutreach@gmail.com,5614495491,"Loxahatchee",FL,33470,
"American Brittany Rescue-FL",abr.fl@americanbrittanyrescue.org,1-866-274-8911,"Palm Springs",FL,33461,
"American Bulldog Rescue",carey@americanbulldogrescue.org,,"Tampa",FL,33626,
"American Bullmastiff Rescue FL",mimifinlay@msn.com,305-282-3389,"Miami",FL,33143,
"American Maltese Rescue",elitek9a@aol.com,(561) 575-1663,"Jupiter",FL,32168,
"Animal Advocates FL, Inc.",animaladvocatesfl@gmail.com,407-314-3881,"Sanford",FL,32772,
"Animal Aid Foundation -Spay & Neuter Center",animalaid@embarqmail.com,850-386-4148,"Tallahassee",FL,32303,
"Animal Aid, Inc.",animalaidinc@aol.com,754-223-5378,"Oakland Park",FL,33334,
"Animal Care Society, Inc. DBA Clewiston Critter Care Animal Clinic",allforthecritters@yahoo.com,(863) 983-9145,"Clewiston",FL,33440,
"Animal Control of West Florida",acowf@att.net,850-638-2082,"Chipley",FL,32428,
"Animal Friends Society",animalfriendssociety@hotmail.com,813-240-4993,"Lutz",FL,33548,
"Animal Haven Rescue of Bay County Florida, LLC",ahrbc@aol.com,,"Panama city",FL,32402,
"Animal Matters",melissa7590@gmail.com,,"Boca Raton",FL,33433,
"Animal Medical Center of Lehigh Acres",amc@amc-la.com,239-369-0555,"Lehigh Acres",FL,33971,
"Animal Refuge Center, Inc.",meowmeowarc@hotmail.com,239-731-3535,"North Fort Myers",FL,33917,
"Animal Rescue Center of Bay County, Inc.",info@adoptbay.com,850-387-0224,"Panama City",FL,32404,
"Animal Rescue Force of South Florida Inc.",info@animalrescueforce.org,561-586-2126,"West Palm Beach",FL,33405,
"Animal Rescue Friends Network Inc.",info@arfn.org,,"Brooksville",FL,34601,
"Animal Welfare and Rescue",animalwelfareandrescue16@gmail.com,(813) 713-9211,"Dade City",FL,33523,
"Animal Welfare League of Charlotte County",info@awlshelter.org,941-625-6720,"Port Charlotte",FL,33980,
"AnimalLuvr's Dream Rescue, Inc",animalluvrsdreamrescue@gmail.com,8133588312,"Riverview",FL,33569,
"Aristocats, Inc.",aristocatgirl@hotmail.com,(321) 441-6481,"Orange City",FL,32763,
"ARK - Animal Rescue Konsortium",arksaves@gmail.com,(386) 624-3661,"Crescent City",FL,32112,
"Aussie And Me Animal Rescue",petinfo@aussieandme.org,,"Nokomis",FL,34275,
"Ayla's Acres No-Kill Animal Rescue, Inc.",stacey@aylasacres.org,650-520-5201,"Saint Augustine",FL,32084,
"Bailey's Way Rescue, Inc.",baileyswayrescue@gmail.com,239-462-3310,"Fort Myers",FL,33919,
"Barkies Legacy",barkieslegacy@yahoo.com,,"Ocoee",FL,34761,
"Barking Back",barkingbackrescue@gmail.com,,"Port Orange",FL,32127,
"Barky Pines Animal Rescue Sanctuary Inc",barkypines@gmail.com,5614021451,"West Palm Beach",FL,33412,
"Bay Area Greyhound Adoptions Inc.",baga@tampabay.rr.com,(813) 272-2332,"Tampa",FL,33607,
"BBTLCS/dba The Last Chance Sanctuary",info@thelastchancesanctuary.com,,"Melbourne",FL,32940,
"Be the Change Inc",juliehansonart@earthlink.net,941-923-1293,"Sarasota",FL,34231,
"Bell's Promise Animal Rescue, Inc.",bellspromiserescue@gmail.com,(863) 272-4666,"Lakeland",FL,33809,
"Best Care Animal Hospital",carangelo82@gmail.com,(727) 846-8899,"New Port Richey",FL,34653,
"Beyond Nine Cat Rescue",beyondninecatrescue@yahoo.com,(954) 348-3858,"Pompano Beach",FL,33069,
"Big Dog Ranch Rescue",adoptions@bdrr.org,(561) 791-6465,"Loxahatchee",FL,33470,
"Big Hearts 4 Paws Rescue",bighearts4pawsrescue@yahoo.com,,"Wellington",FL,33414,
"Big Hearts for Big Dogs Rescue- Miami",info@bigheartsbigdogs.com,,"Miami",FL,33176,
"Bishop Animal Shelter SPCA of Manatee County",info@bishopspca.org,(941) 792-2863,"Bradenton",FL,34209,
"Bitty Kitties of Central Florida",bittykittiesofcentralflorida@rescueteam.com,(321) 377-8166,"Lake Mary",FL,32746,
"Black Cats & Old Dogs Animal Rescue",blackcatsolddogs@gmail.com,(850) 491-8398,"Tallahassee",FL,32304,
"Blessed Paws Animal Rescue Inc",blessedpawsanimalrescue@gmail.com,(561) 306-9363,"Lake Worth",FL,33460,
"Bo Nose Rescue",bonoserescue@gmail.com,,"Cape Coral",FL,33990,
"Born Free Pet Shelter",bornfreepetshelter@gmail.com,(786) 205-6865,"Key Biscayne",FL,33149,
"Boston Terrier Rescue of Florida, Inc.",contact@bostonrescueflorida.org,(844) 233-8337,"Lake Mary",FL,32746,
"Boxer Aid & Rescue Coalition, Inc.",info@boxerarc.org,(877) 633-2108,"Tallahassee",FL,32317,
"Boxer Friends, Inc. (Boxer Rescue)",info@boxerfriends.org,866-715-9743,"Fort Lauderdale",FL,33346,
"Boxer Rescue Angels of Florida",info@flboxerangels.org,800-847-5196,"Bradenton",FL,34202,
"Breakfast Club K9 Rescue, Inc. - LaBelle",breakfastclubrescue@outlook.com,(863) 674-1592,"Labelle",FL,33935,
"Brigid's Crossing Foundation",mar04freebird@yahoo.com,(239) 825-3322,"Naples",FL,34108,
"Brookes Legacy Animal Rescue, Inc.",admin@brookeslegacyanimalrescue.org,(239) 434-7480,"Naples",FL,34102,
"Broward County Animal Care and Adoption",animalcare@broward.org,954-359-1010,"Fort Lauderdale",FL,33312,
"Broward Ferret Rescue & Referral",fuzzyrescues@aol.com,(954) 977-4583,"Coconut Creek",FL,33334,
"Buddies for Life Inc.",fixfido@outlook.com,,"Orlando",FL,32853,
"Buddies Thru Bullies - English Bulldog Rescue",btbrescue@gmail.com,305 666 8870,"Miami",FL,33134,
"Buddy Rescue",brevardbuddyrescue@gmail.com,321-863-5205,"Cocoa",FL,32926,
"Buddy's Buddies Animal Rescue, Inc.",bbar@rescueteam.com,(863) 257-4228,"Avon Park",FL,33825,
"C Dog Run, Inc",cdogruninc@gmail.com,850-398-2703,"Crestview",FL,32539,
"C.A.R.E.",careshelter@aol.com,(813) 645-2273,"Ruskin",FL,33570,
"C.A.R.T.",cart2012@embarqmail.com,(850) 837-3856,"DeFuniak Springs",FL,32433,
"Caloosa Humane Society, Inc.",info@caloosahumanesociety.org,(863) 675-0997,"Labelle",FL,33975,
"Camp Many Paws",susanjp5657@gmail.com,239-438-2963,"Naples",FL,34112,
"Candys Cats, Inc.",candyscats@gmail.com,407-760-2052,"Orlando",FL,32835,
"Canine Castaways",caninecastaways@hotmail.com,863-491-MUTT (6888),"Arcadia",FL,34266,
"Canine Estates inc",director@canineestates.com,727-412-0558,"Palm Harbor",FL,34683,
"CARE of Santa Rosa County",careofsantarosacountyfl@yahoo.com,,"Navarre",FL,32566,
"CARES (Community Animal Rescue & Educational Shelter",caresrescue@gmail.com,,"Brooksville",FL,34604,
"Caring Fields Felines",pauline@cffelines.org,(772) 634-9501,"Palm City",FL,34990,
"Cat Call Inc.",catcallfl@gmail.com,(813) 324-9320,"Brandon",FL,33511,
"Cat Crusade Adoption & Rescue",catcrusadeadoption@gmail.com,(954) 644-9967,"Fort Lauderdale",FL,33315,
"Cat Crusaders",adopt@tampacatcrusaders.org,941-444-1228,"Wesley Chapel",FL,33544,
"Cat Depot",adoptions@catdepot.org,(941) 366-2404,"Sarasota",FL,34243,
"Cat Haven Rescue Inc",yodaflorida@yahoo.com,,"Land O Lakes",FL,34639,
"Cat Lovers Inc.",cewtampa@aol.com,(813) 831-2431,"Tampa",FL,33629,
"Catapalooza, Inc.",catapaloozatnr@gmail.com,,"Orlando",FL,32826,
"Catopia Cat Rescue",catopiacatrescue@gmail.com,954.608.5851,"Plantation",FL,33318,
"Cats Angels, Inc. SPCA",catsangels@catsangels.com,(904) 321-2267,"Fernandina Beach",FL,32035,
"Cats Are My Love",catsaremyloves@gmail.com,,"Orlando",FL,32807,
"Cats Exclusive, Inc.",adopt@catsexclusive.org,(954) 975-8349,"Margate",FL,33063,
"Cats In Knead, Inc",adoptions@catsinknead.org,(321) 345-8727,"Orlando",FL,32856,
"CATS-CAN",kittyrescuetnr@gmail.com,,"Oviedo",FL,32762,
"Cause for Paws, Inc",causeforpawsfl@gmail.com,9543404493,"Parkland",FL,33067,
"Cauzican Care, Inc.",cauzicanfl@gmail.com,850-879-1905,"Crawfordville",FL,32327,
"Cavalier Rescue of Florida, Inc.",adoptions@cavrescuefl.com,,"Enterprise",FL,32725,
"Chesed Foundation Inc.",bobbi@chesed-rescue.org,(561) 213-5773,"Boca Raton",FL,33496,
"Clay County Animal Care & Control",animalcontrol@claycounty.gov,904-269-6342,"Green Cove Springs",FL,32043,
"Cocker Rescue of Florida",cockerrescuefl@hotmail.com,954-756-3266,"Fort Lauderdale",FL,33339,
"Col Potter Cairn Rescue Network -SE",cpcrn@cairnrescue.com,,"Ponte Vedra Beach",FL,32082,
"Collie Rescue of Tampa Bay, Inc.",contact@collierescueoftampabay.com,,"Clearwater",FL,33766,
"Collier Animal Rescue",jen@collieranimalrescue.org,239-571-0473,"Naples",FL,34101,
"ColliesFlorida Rescue",colliesflorida@mac.com,,"Gainesville",FL,32641,
"Community Cats of Bonita Springs FL",bonitakittyfixers@gmail.com,(810) 630-9097,"Bonita Springs",FL,34136,
"Community Pet Rescue",laney714@bellsouth.net,305-889-0840,"Miami Springs",FL,33266,
"Compassionate Pug Rescue of South Florida",adopt@compassionatepugrescue.com,,"Miami",FL,33179,
"Covenant Pet Trust Inc.",covenantpettrust@gmail.com,(386) 288-1339,"Lake City",FL,32056,
"CPOD",alldogsaregood@gmail.com,(727) 644-1341,"St Petersburg",FL,33713,
"Crazy Cavies",crazycavies@hotmail.com,954-547-3201,"Lauderhill",FL,33351,
"Crazy Rescue Ladies Inc",crazyrescueladiesinc@gmail.com,(908) 884-4744,"Cooper City",FL,33026,
"Crossroads Shih Tzu Rescue",cstr.board@crossroadsrescue.org,www.crossroadsrescue.org,"Tallahassee",FL,32309,
"Crystal's Critter Care",crystal1065@gmail.com,(321) 426-5489,"Malabar",FL,32950,
"Dachshund Adoption Rescue & Education (DARE)",info@daretorescue.com,,"Jacksonville",FL,33777,
"Dachshund Rescue South Florida",info@dachshundrescuesouthflorida.com,,"Miami Beach",FL,33140,
"Dalmatian Rescue of South Florida",fladalrescue@aol.com,(305) 940-3320,"North Miami Beach",FL,33162,
"Daytona Beach German Shepherd Rescue",dbgsdrescue@yahoo.com,(386) 366-3820,"Ormond Beach",FL,32174,
"Desi's Den Senior Sanctuary",robleroymiller@gmail.com,(516) 234-8392,"Wilton Manors",FL,33334,
"DeSoto County Animal Services",d.merkin@co.desoto.fl.us,863-993-4855,"Arcadia",FL,34266,
"Destiny For Dogs",joann@destinyfordogs.com,(561) 313-2005,"West Palm Beach",FL,33405,
"Dezzy's Second Chance Animal Rescue,Inc.",designsbydezzy@aol.com,(954) 588-7045,"Boca Raton",FL,33431,
"Dixie Animal Hospital",dixieanimal@bellsouth.net,305-238-5161,"Miami",FL,33176,
"Dixie County Humane Society  352-542-1081",chica@dixiecountyhumanesociety.org,352 542-1081,"Old Town",FL,32680,
"Doberman Rescue League",savethedobes@aol.com,954-232-4334,"Oakland Park",FL,33307,
"Dobermann Rescue of Lake Placid Inc.",ke4iea@earthlink.net,863-446-0429,"Lake Placid",FL,33852,
"Dobie Ranch Rescue",diane@dobieranchrescue.com,(352) 302-9251,"Crystal River",FL,34428,
"Dobie-Rescue North Florida Inc",dobierescuetally@yahoo.com,,"Lloyd",FL,32337,
"Dog-Harmony",bownnancy@gmail.com,,"Miramar Beach",FL,32550,
"Dogma Pet Rescue, Inc.",all@dogmarescue.org,,"Tampa",FL,33604,
"Dogs Rule Rescue Group",dogsrule@drrg.org,(954) 380-3647,"Deerfield Beach",FL,33441,
"DreamCatcher German Shepherd Rescue Inc.",azia25@hotmail.com,407-568-5468,"Orlando",FL,32878,
"E.A.R.S. - Elizabeth's Animal Rescue & Sanctuary",earsrescue@gmail.com,813-355-6285,"Odessa",FL,33556,
"EARS Animal Rescue Sanctuary",englewoodanimalrescue@yahoo.com,941-681-3877,"Englewood",FL,34223,
"Edgewater Animal Shelter",edgewateranimalshelter@gmail.com,(386) 957-3994,"Edgewater",FL,32132,
"Elfie's Refuge",elfiesrefuge@yahoo.com,561*755*3118,"Brooksville",FL,34601,
"Escambia County Animal Services",prtrout@co.escambia.fl.us,850-595-3075,"Pensacola",FL,32501,
"Escarosa Greyhound and All-Pet Adoptions",escadoptions@gmail.com,859-327-1788,"Pensacola",FL,32526,
"Everglades Angels Dog Rescue",info@abandoneddogrescue.org,1-800-511-3647,"Pompano Beach",FL,33062,
"Ewenity Farm, A Herding Dog Haven,Inc",go4otch@gmail.com,,"Bradenton",FL,34211,
"F.I.N.O. Doggie Rescue Inc. * Non-for-Profit",www_doggie_rescue@yahoo.com,(561) 674-6289,"Parkland",FL,33067,
"F.R.I.E.N.D.S. Horse Rescue and Sanctuary",info@eiahorses.org,(954) 609-5943,"Fort Lauderdale",FL,33332,
"Fairy Cat Mother, Inc.",fairy.catmother@yahoo.com,954-462-9393,"Fort Lauderdale",FL,33315,
"Fairy Tails",fairytailsorg@gmail.com,(305) 596-9694,"Miami",FL,33173,
"Fallin Pines Critter Rescue",shirleycannan@bellsouth.net,407-568-7988,"Christmas",FL,32709,
"Family Forever Animal Foundation, Inc",ffanimalfoundation@gmail.com,,"Apopka",FL,32704,
"FARR - FLORIDA RETRIEVER RESCUE",adoptfromfarr@yahoo.com,,"Saint Petersburg",FL,33782,
"Fast Friends Greyhound Adoption Inc.",way2fast4ewe@gmail.com,810-931-2802,"North Port",FL,34286,
"Fawn's Family Small Dog Rescue",fawnsfamilysmalldogrescue@gmail.com,904-773-3553,"Orange Park",FL,32067,
"Feline Canopy of Care, Inc.",mimispath@comcast.net,904.687.8717,"Saint Augustine",FL,32085,
"Feline Friends",info@felinefriendsfl.com,(954) 596-0848,"Deerfield Beach",FL,33441,
"Feline Friends of Destin",felinefriendsofdestin@hotmail.com,(850) 837-3869,"Destin",FL,32541,
"Field of Dreams Animal Rescue",shelhornspinks@aol.com,407-375-4176,"Oviedo",FL,32765,
"Find A Home Give A Home Pet Rescue",pets@findahomegiveahome.com,239-338-8184,"Fort Myers Beach",FL,33931,
"First Coast Beagle Rescue",floridafirstcoastbeaglerescue@gmail.com,904-588-4267,"Jacksonville",FL,32258,
"Florida Brittany Rescue, Inc.",caron@floridabrittanyrescue.org,941-219-7022,"Myakka City",FL,34251,
"Florida Coastal Cocker Rescue",coastalcocker@gmail.com,(239) 220-7763,"Cape Coral",FL,33914,
"Florida Dachshund Rescue",fldrwebmaster@gmail.com,,"Winter Park",FL,32789,
"Florida English Bulldog Rescue",englishbulldogrescue@gmail.com,,"Odessa",FL,33556,
"Florida Keeshond Rescue, Inc.",hollikees@aol.com,904-223-6591,"Jacksonville",FL,32224,
"Florida Parrot Rescue",adoptions@floridaparrotrescue.com,,"Tampa",FL,33637,
"Florida Pointer Rescue",floridapointerrescue@gmail.com,(386) 361-4180,"New Smyrna Beach",FL,32168,
"Florida Service Dogs, Inc.",buddynme@bellsouth.net,(800) 549-2600,"Jacksonville",FL,32234,
"Florida Urgent Rescue Inc.",adoptions@floridaurgentrescue.com,(904) 372-3930,"Jacksonville Beach",FL,32250,
"FOCCAS, Inc. (Friends of Citrus County Animal Shelters)",info@friendsofccas.com,,"Inverness",FL,34451,
"For the Love of Cats Inc.",jan@fortheloveofcatsfl.com,239-642-8674,"Marco Island",FL,34145,
"Forever Pets, Inc.",foreverpetsinc@gmail.com,239-839-7011,"North Fort Myers",FL,33903,
"Forever Saving Angels, Inc",foreversavingangels@yahoo.com,850-748-9381,"Cantonment",FL,32533,
"Forget-Me-Not",rescuefmn@gmail.com,,"Myakka City",FL,34251,
"Four Paws Foster Care and Rescue",4pawsforu@gmail.com,407-508-0353,"Saint Cloud",FL,34772,
"Franklin County Humane Society",fcadoptioncenter@fairpoint.net,850-670-8417,"Eastpoint",FL,32328,
"Freedom Tails Rescue, Inc.",pam@freedomtails.org,3215764513,"Mims",FL,32754,
"Friends of Animals in Nassau",frofals@gmail.com,,"Fernandina Beach",FL,32034,
"Friends of Greyhounds, Inc.",fogdogs@comcast.net,(954) 578-0072,"Sunrise",FL,33322,
"Friends of Strays Inc.",laine@friendsofstrays.com,(727) 522-6566,"Saint Petersburg",FL,33781,
"Froggy's Cat Rescue",froggyscatrescue@comcast.net,,"Jacksonville",FL,32210,
"Fur and Tails Animal Rescue",furandtailsrescue@gmail.com,,"Fort Myers",FL,33913,
"Fur Angels Rescue",furangelsrescue@gmail.com,(786) 368-8005,"Miami",FL,33137,
"Fur Real Friends Animal Rescue",4theluvofdogs1977@att.net,(904) 400-0200,"Middleburg",FL,32068,
"Fur Sisters - Furever Urs Rescue",fureverursrescue@gmail.com,,"Jacksonville Beach",FL,32250,
"Furever Bully Love Rescue",fureverbullyloverescue@yahoo.com,,"Orlando",FL,32826,
"FurEver Friendz, Inc",debra.fureverfriendz@gmail.com,(352) 835-8292,"Spring Hill",FL,34611,
"Furever Yours Pet Rescue and Placement Services",fureveryourspetrescue@outlook.com,(813) 735-9376,"Tampa",FL,33625,
"Furry Friends Adoption and Clinic",adoptiondeskfurryfriends@gmail.com,561-747-5311,"Jupiter",FL,33458,
"Furry Nation Salvation",cravinthewave@hotmail.com,(386) 295-2755,"New Smyrna Beach",FL,32168,
"Gainesville Pet Rescue",gvillepetrescue@aol.com,352-692-4773,"Gainesville",FL,32607,
"Gainesville Rabbit Rescue",gvrabbitrescue@gmail.com,352-318-0028,"Gainesville",FL,32601,
"German Shepherd Rescue of Central Florida",weluvgsds@gsrfl.com,352-897-5357,"Dunnellon",FL,34433,
"GET A LIFE PET RESCUE/S.Fl.Pet Rescue & Rehab. Inc.",info@getalifepetrescue.com,(954) 629-2445,"Plantation",FL,33317,
"GetALong Dachshund Rescue",adopt.gdxrescue@gmail.com,,"Green Cove Springs",FL,32043,
"Giant Breeds Rescue",me@jacob-w.com,(561) 221-0314,"Hollywood",FL,33024,
"GIMME SHELTER PET ADOPTION",sleepswithdogs101@gmail.com,(727) 350-2175,"Sarasota",FL,34237,
"Gods Greyts Greyhound Group Inc.",godsgreyts@mac.com,407-578-7496,"Orlando",FL,32818,
"Gold Coast Greyhound Adoptions, Inc.",romine@gmail.com,,"Clearwater",FL,33758,
"Golden Retriever Emergency Assistance Team (GREAT Rescue of NE Florida Inc.)",info@greatrescue.org,(904) 501-6899,"Jacksonville",FL,32259,
"Good Karma Pet Rescue, Inc.",goodkarmapetrescue@gmail.com,,"Fort Lauderdale",FL,33348,
"Grateful Paws Dog and Cat Rescue",info@gratefulpaws.org,954-462-8840,"Fort Lauderdale",FL,33315,
"Great Dane Love - A Central Florida Rescue, Inc.",michelle@gdlcf.org,,"Cocoa",FL,32923,
"Great Dane Rescue of South Florida",a82380@aol.com,(561) 748-4017,"Jupiter",FL,33478,
"Great Dawg Rescue Inc.",laura@greatdawgrescue.org,,"Ormond Beach",FL,32176,
"Greyhound Advancement Center",gcgagulfcoast@gmail.com,(727) 786-3278,"St. Petersburg",FL,33702,
"Greyhound Hope Rehabilitation and Adoption",greyhound.hope.rehab@gmail.com,,"Cape Coral",FL,33909,
"Greyhound Pet Adoption, Florida/Southeast",info@greyhoundpetsfl.org,561-478-3006,"West Palm Beach",FL,33411,
"Greyhound Pet Adoptions of Central Florida",cfgpa@cfl.rr.com,(321) 242-9010,"Melbourne",FL,32934,
"Greyhound Pets Senior Sanctuary of Florida",debbysk8@aol.com,(407) 923-8865,"Casselberry",FL,32707,
"Greyhound Ranch Adoptions, Inc. & Pawdners",greyhoundranchfl@earthlink.net,407/804-5257,"Longwood",FL,32779,
"GST's Sun State Greyhound Adoption",sunstategreyhounds@gmail.com,(813) 263-3427,"Hialeah",FL,33014,
"GTS Husky Rescue (Gaisha, Tundra, and Spirit's Place)",gtshuskyrescue.staff@gmail.com,,"Jupiter",FL,33477,
"Guardian Angel Dog Rescue",guardianangeldogrescue@gmail.com,813-406-6549,"Tampa",FL,33618,
"Gulf Coast Golden Retriever Rescue, Inc.",goldensinneed@gcgrr.org,,"Murdock",FL,33938,
"Gulf Coast Humane Society",info@gulfcoasthumanesociety.org,239-332-0364,"Fort Myers",FL,33916,
"Gulfstream Guardian Angels Rottweiler Rescue",garotts@aol.com,,"Alachua",FL,32615,
"H.E.A.R.T. Animal Rescue",heartanimalrescue@yahoo.com,,"Defuniak Springs",FL,32435,
"Haile's Angels Pet Rescue",hailesangelspetrescue@gmail.com,(352)505-0302,"Gainesville",FL,32608,
"Halifax Humane Society Inc",petfinder@halifaxhumanesociety.org,386-274-4703,"Daytona Beach",FL,32124,
"Hands & Paws Dog Rescue",info@handsandpawsrescue.com,,"Holiday",FL,34690,
"Hannahs HOPE Inc",hannahshopeinc@gmail.com,(850) 496-7529,"Fort Walton Beach",FL,32547,
"Happy Cat Rescue of Mulberry Grove",erickadoolittle@yahoo.com,352 502 3518,"Summerfield",FL,34491,
"Happy Tails Adoptions",happytailsadoptions@hotmail.com,(352) 817-9745,"Silver Springs",FL,34488,
"Happy Trails Animal Rescue",happytrailsanimalrescue@yahoo.com,4075931458,"Saint Cloud",FL,34772,
"Hardee County Animal Control",animalcontrol@hardeecounty.net,(863) 773-2320,"Wauchula",FL,33873,
"Hardin's Haven",ducks@tampabay.rr.com,352-422-5525,"Crystal River",FL,34429,
"Have A Heart, Inc",haveaheartfl@yahoo.com,,"Delray Beach",FL,33446,
"Haven on Earth Animal League Inc.",havenonearthanimalleague@yahoo.com,(239) 410-9983,"Fort Myers",FL,33906,
"Heart to Heart Small Dog Rescue",heartbod@yahoo.com,949-698-7292,"Sebastian",FL,32958,
"Heartland Rescue Ranch, Inc",adopt.heartlandrr@gmail.com,(850) 960-4543,"Panama City",FL,32409,
"HEAVENBOUND Rescue",heavenboundrescue@yahoo.com,(386) 454-1111,"High Springs",FL,32643,
"Heidi's Legacy: Dog Rescue, Inc.",heidislegacy@aol.com,,"Lithia",FL,33547,
"Helping Hands Rescue",helpinghandspetrescue@gmail.com,,"Micanopy",FL,32667,
"Helping Overpopulation of Pets End (HOPE)",brevardhope@gmail.com,321-271-4041,"Satellite Beach",FL,32937,
"Helping Paws Animal Sanctuary",admin@helpingpawsanimalsanctuary.com,239-283-9100,"St. James City",FL,33956,
"Helping Paws Foundation",contact@helpingpawsfoundation.com,(954) 952-4589,"Hollywood",FL,33019,
"Hernando County Animal Shelter",ac@hernandocounty.us,352-796-5062,"Brooksville",FL,34601,
"Hobo's Wish",katiax210@gmail.com,(954) 687-6413,"Hollywood",FL,33021,
"Honor Animal Rescue",adoption@honoranimalrescue.org,941 747-4900,"Bradenton",FL,34211,
"Hope Helps All",hopehelpsall@gmail.com,(813) 815-3436,"Tampa",FL,33618,
"Houndhaven Inc.",houndhaveninc@aol.com,352-243-9795,"Minneola",FL,34755,
"HouseRabbit Adoption, Rescue, and Education, Inc. -- HARE",rabbit@bio.miami.edu,305-666-BUNN,"Miami",FL,33143,
"Humane Society of Broward County",info@hsbroward.com,(954) 989-3977,"Fort Lauderdale",FL,33312,
"Humane Society of Florida, Inc.",humanesocietyflorida@gmail.com,,"Boca Raton",FL,33427,
"Humane Society of Highlands County",highlandscountyhs@gmail.com,(330) 261-3934,"Sebring",FL,33876,
"Humane Society of Manatee County",adoptions@humanesocietymanatee.org,941.747.8808,"Bradenton",FL,34205,
"Humane Society of Pinellas",adoptions@humanepinellas.org,(727) 797-7722,"Clearwater",FL,33759,
"Humane Society of Polk County",lbhspc@aol.com,(863) 324-5227,"Winter Haven",FL,33881,
"Humane Society of Sarasota County Inc.",tstoddard@hssc.org,(941) 955-4131,"Sarasota",FL,34237,
"Humane Society of South Brevard",humanesocietysb@bellsouth.net,(321) 259-0601,"Melbourne",FL,32940,
"Humane Society of Vero Beach and Indian River County",pkohler@hsvb.org,(772) 388-3331 X10,"Vero Beach",FL,32967,
"Humane Society of West Florida",hsowfl@gmail.com,8444476935,"Land O Lakes",FL,34638,
"Humane Society/SPCA of Sumter County, Inc.",info@hsspca.org,352-793-9117,"Lake Panasoffkee",FL,33538,
"Hurricane Pets Rescue Inc.",info@hurricanepetsrescue.org,(786) 999-8239,"Miami Beach",FL,33141,
"Husky Haven of Florida",info@huskyhavenfl.org,(727) 475-2195,"Winter Springs",FL,32719,
"IMPS - Internet Miniature Pinscher Services Inc. - FL region",vnero323@gmail.com,305-467-8998,"Pinellas Park",FL,33780,
"In Harmony with Nature Animal Haven",inharmonywithnature.adoptions@gmail.com,(407) 495-8954,"Orlando",FL,32818,
"Independent Cat & Kitten Rescue",pioneerwomanatheart@gmail.com,,"Zephyrhills",FL,33541,
"Its All About the Cats Inc.",iaatci.fl@gmail.com,321-329-3101,"Orlando",FL,32803,
"Jacksonville Humane Society",adoptions@jaxhumane.org,904-725-8766,"Jacksonville",FL,32216,
"Jacksonville Sheltie Rescue",dduffey@aol.com,904-262-5420,"Jacksonville",FL,32258,
"Jamies Rescue",jamiesrescue@gmail.com,305-409-8442,"Miami",FL,33153,
"Jimmy's Angels Rescue",jimmysangelsrescue@gmail.com,352-777-0446,"Spring Hill",FL,34609,
"Justin Bartlett Animal Rescue",justinbartlettanimalrescue@gmail.com,561-684-1010,"West Palm Beach",FL,33421,
"K-9 Services German Shepherd Rescue",luvgermansheps@yahoo.com,,"Green Cove Springs",FL,32043,
"K9 Resque",k9resque@gmail.com,863-824-5373,"Okeechobee",FL,34972,
"K94U Rescue",adopt@k94urescue.com,(954) 344-5298,"Coral Springs",FL,33076,
"Kathi's K9s",kathi.jackson9@gmail.com,,"Weeki Wachee",FL,34614,
"Katz 4 Keeps, Inc.",info@katz4keeps.org,(904) 834-3223,"Ponte Vedra Beach",FL,32082,
"Key Largo Animal Shelter",tfgarr@aol.com,(305) 451-0088,"Key Largo",FL,33037,
"Kibblez of Love",info@kibblezoflove.org,(561) 271-5890,"West Palm Beach",FL,33411,
"L&R Rescue",lnrrescue@gmail.com,(850) 368-7632,"Navarre",FL,32566,
"Labrador Retriever Rescue of Florida (LRRoF), Inc.",info@lrrof.org,(877) 522-7352,"Altamonte Springs",FL,32701,
"Lady Luck Animal Rescue",ladyluckanimalrescue@hotmail.com,561-302-3624,"Lake Worth",FL,33454,
"Lake County Animal Shelter",animalrescue@lakecountyfl.gov,(352) 343-9688,"Tavares",FL,32778,
"Last Chance Animal Sanctuary",lcascarriemann@yahoo.com,941-373-5670,"Sarasota",FL,34232,
"Leesburg Humane Society",leesburghumanesociety@gmail.com,352-669-3312,"Leesburg",FL,34788,
"Leesburg Veterinary Hospital",leesburgveterinaryhospital@yahoo.com,352-787-1115,"Leesburg",FL,34748,
"Leon County Humane Society",info@lchs.info,850-224-9193,"Tallahassee",FL,32308,
"Levy County Animal Services",animalservices@levycounty.org,(352) 486-5138,"Bronson",FL,32621,
"Lifeline Dog Rescue",info@lifelinedogrescue.org,863-582-2150,"Davenport",FL,33896,
"Lil' Rascals Dog Rescue",lilrascalsrescue@gmail.com,(407) 416-7454,"Osteen",FL,32764,
"Limbo Chihuahuas",events.limbochi@gmail.com,,"Gulfport",FL,33707,
"Little Feet, Big Heart Rescue",lfbhr@yahoo.com,(860) 372-6455,"Bradenton",FL,34203,
"Little Tails Rescue, Inc.",littletailsrescueinc@gmail.com,,"Miami",FL,33265,
"Love Is Fur Ever Dog Rescue",loveisfurever@gmail.com,,"Lehigh Acres",FL,33972,
"Low Rider Dachshund Rescue of Florida",info@lrdrfl.com,(941) 216-5234,"Bradenton",FL,34209,
"Loxahatchee Animal Rescue Community",loxanimalrescuecomm@gmail.com,(561) 723-8197,"Loxahatchee",FL,33470,
"Lucky Ones Rescue Inc.",luckyonesrescue@hotmail.com,,"Tampa",FL,33617,
"Lucky Puppy Dog Rescue & Kennel, Inc.",luckypuppyrescue@aol.com,,"BONIFAY",FL,32425,
"Luna's Paws, Corp.",lunaspawsrescue@gmail.com,7867089738,"Hialeah",FL,33013,
"LUV A PET",luvapet2004@yahoo.com,,"Royal Palm Beach",FL,33411,
"Magic Great Danes Inc.",danemagic@yahoo.com,,"West Melbourne",FL,32904,
"Manatee County Animal Services",animal.services@mymanatee.org,941-742-5933,"Palmetto",FL,34221,
"Marion County Animal Services",animalservices@marioncountyfl.org,352-671-8700,"Ocala",FL,34480,
"MarrVelous Pet Rescue",joym@marrvelouspetrescues.org,305-453-1315,"Key Largo",FL,33037,
"Max's Pet Connection",mrcamoman@centurylink.net,,"Umatilla",FL,32784,
"Miami Pet Assistance Coalition (MPAC)",mpac.adoptions@gmail.com,,"Miami",FL,33238,
"Miami-Dade Animal Services",pets@miamidade.gov,305-418-7149,"Miami",FL,33166,
"Mid Florida Sheltie Rescue",dillardbad@aol.com,321-345-4527,"Palm Bay",FL,32905,
"Misfit Animal Rescue Inc.",misfitanimalrescue@yahoo.com,352-429-4077,"Groveland",FL,34736,
"MisFit ResQ",misfitresq@aol.com,(561) 889-8280,"West Palm Beach",FL,33405,
"My Animals Rock,Inc.",klcremer@aol.com,305-401-4693,"Hollywood",FL,33021,
"My Safe Place Pet Rescue",tululasmom@aol.com,850-306-1718,"Crestview",FL,32539,
"NAIA's Pet Rescue",naiaspetrescue@gmail.com,954947PETS,"Pompano Beach",FL,33064,
"Naked Kisses Dog Rescue",nakidrescue@gmail.com,,"Parrish",FL,34219,
"Nala's New Life Rescue, Inc.",sirbear25@gmail.com,772-485-3799,"Palm City",FL,34990,
"Nassau Humane Society",info@nassauhumane.org,904-321-1647,"Fernandina Beach",FL,32034,
"Navarre Ferret and Dog Rescue",navarreferretrescue@gmail.com,,"Navarre",FL,32566,
"Neptune Beach Animal Control",deezagari@nbfl.us,(904) 270-2411,"Neptune Beach",FL,32266,
"New Horizon Dog Rescue, Inc.",inquiryfornewhorizondogrescue@gmail.com,,"St. Petersburg",FL,33712,
"New Life Dog Rescue",flnewlifedogrescue@gmail.com,,"Riverview",FL,33578,
"New Spirit 4 Aussie Rescue (South East)",flaussierescue@cfl.rr.com,,"Deltona",FL,32725,
"Newberry Animal Hospital",katiemarie13@windstream.net,352-472-7035 or 352-332-2292,"Newberry",FL,32669,
"No Paw Left Behind",nopawleftbehindrescue@gmail.com,,"Davie",FL,33325,
"Noodles Animal Refuge",noodlesanimals@gmail.com,3867482356,"Deltona",FL,32725,
"Nuggetville Brigade",nuggetvillebrigade@gmail.com,786-564-6794,"Plantation",FL,33317,
"NW Florida Great Dane Rescue Inc.",nwflgdr@gmail.com,,"Pensacola",FL,32505,
"On the Wings of Angels Rescue",info@owar.org,(813) 920-2627,"Odessa",FL,33556,
"One By One Dog Rescue, Inc.",onebyonedogrescue@aol.com,305-321-4051,"Miami",FL,33173,
"Operation PAW",adopt@operationpaw.com,3054073736,"Miami",FL,33127,
"Orange County Animal Services",animalservices@ocfl.net,,"Orlando",FL,32839,
"Orlando Bully Rescue",topbully@orlandobullyrescue.org,,"Longwood",FL,32752,
"Orlando Rabbit Care & Adoptions (ORCA)",info@orlandorabbit.org,,"Longwood",FL,32791,
"Oscar's Cause",info@oscarscause.org,(863) 353-7853,"Lake Hamilton",FL,33851,
"Osceola County Animal Services",petinquiries@osceola.org,,"Saint Cloud",FL,34769,
"P.A.W.S of Hillsborough County",info@pawsofhc.org,813-655-7297,"Brandon",FL,33511,
"Palm Beach County Animal Care & Control",pbcacc@pbcgov.org,561-233-1200,"West Palm Beach",FL,33411,
"Palm Beach County Animal Care and Control",ydelacru@pbcgov.org,(561) 233-1214,"West Palm Beach",FL,33411,
"Panhandle Animal Lovers",pal@petlover.com,(850) 683-4104,"Crestview",FL,32539,
"Panhandle Animal Welfare Society",pawsftwb@embarqmail.com,850-243-1525,"Fort Walton Beach",FL,32548,
"Paradise for Pets Rescue",info@paradise4petsrescue.com,407-680-3999,"Windermere",FL,34786,
"Parkers Rainbow Bridge Animal Rescue Inc",prbarinc@gmail.com,,"Cape Coral",FL,33991,
"Parrot Outreach Society",parrotoutreach@comcast.net,941-347-8876,"Punta Gorda",FL,33982,
"Partnership for Paws, Inc.",partnershipforpaws@gmail.com,,"Grand Island",FL,32735,
"Passionate Pet Rescue & Adoption",passionatepetrescue@yahoo.com,PLEASE E-MAIL,"Palm Bay",FL,32907,
"Pattys Parrot Palace, Inc",pattysparrotpalace@gmail.com,321-689-3969,"Orlando",FL,32804,
"Paw Patrol Animal Rescue and Sanctuary",pawpatrolanimalrescue@gmail.com,,"Miami",FL,33155,
"Paw Print Hearts Inc.",ourpawprinthearts@gmail.com,,"Tampa",FL,33626,
"Paw Warriors",paw.warrior@yahoo.com,352-942-1859,"Spring Hill",FL,34606,
"Pawesome Village  Rescue",pawesomevillage@aol.com,,"New Port Richey",FL,34654,
"Paws 2 Care Coalition",ana@paws2carecoalition.org,,"Hollywood",FL,33024,
"Paws 4 Humanity, Inc",paws4humanity@att.net,904 771-9516,"Orange Park",FL,32073,
"Paws 4 You Rescue, Inc.",info@paws4you.org,786-242-RESQ (7377),"Miami",FL,33158,
"Paws and Claws",rkish@svic.net,(352)493-1255,"Chiefland",FL,32626,
"PAWS Lee County",pawsofleecounty@gmail.com,,"North Fort Myers",FL,33903,
"PAWS Rescue Group",info@pawsrescuegroup.com,727-772-3935,"Seminole",FL,33772,
"PAWS South Florida Rescue, Inc.",dmeow700@aol.com,(954) 609-3284,"Fort Lauderdale",FL,33309,
"Peggy Adams Animal Rescue League",adoptions@peggyadams.org,561-686-3663,"West Palm Beach",FL,33409,
"Pekingese rescue and others",doogluv@aol.com,,"Orlando",FL,32808,
"Pensacola Humane  Society",adopt@pensacolahumane.org,850-432-4250,"Pensacola",FL,32505,
"Pet Alliance of Greater Orlando",info@petallianceorlando.org,407-351-7722,"Orlando",FL,32839,
"Pet Haven Rescue",carole@pethavenrescue.org,561-719-7914,"Loxahatchee",FL,33470,
"Pet Pal Animal Shelter",info@petpalanimalshelter.com,727-328-7738,"Saint Petersburg",FL,33712,
"Pet Partners Rescue Home",mypetspartner@aol.com,305-772-1295,"Miami",FL,33165,
"Pet Rescue & Adoption Center Inc.",scherrel@bellsouth.net,(561) 305-2623,"Boca Raton",FL,33429,
"Pet Rescue by Judy",info@petrescuebyjudy.com,(407) 302-4497,"Sanford",FL,32771,
"Pet Rescue North Inc.",prnorth@yahoo.com,,"Jacksonville",FL,32226,
"Pets In Distress of South Florida, Inc.",pidinc@aol.com,(954) 472-8667,"Davie",FL,33328,
"Pets in Foster Care for Jacksonville Animal Care and Protective Services",michellemcamp@gmail.com,(904) 630-CITY,"Jacksonville",FL,32204,
"Pick Me! Pet Rescue",petadopt@hotmail.com,,"Palm Harbor",FL,34684,
"Pinellas County Animal Services",cmiller@pinellascounty.org,(727)582-2600,"Largo",FL,33774,
"Pit Sisters, Inc.",sisters@pitsisters.org,,"Jacksonville",FL,32224,
"Pitbull Tailz Rescue, Inc",pitbulltailzrescuefl@gmail.com,407-773-2797,"Apopka",FL,32703,
"Planned Pethood Rescue",cevers@plannedpethoodpasco.com,(813)779-7000,"Zephyrhills",FL,33542,
"Plenty of Pit Bulls",gainesvillepitbulls@gmail.com,,"Gainesville",FL,32601,
"Polk County Animal Control",animalrescue@polksheriff.org,(863)499-2600,"Winter Haven",FL,33830,
"Polka Dogz Pet Rescue",heidi@polkadogz.org,727-510-6445,"Winter Garden",FL,34787,
"Poochie's Pet Rescue Inc",poochiespetrescue@gmail.com,(904) 503-7634,"Hollister",FL,32147,
"PrancingPaws k9 Rescue",myranch99@gmail.com,(407) 280-6271,"Orlando",FL,32808,
"Professional Animal Worlds H.A.L.O. Rescue",halonokillrescue@gmail.com,(772) 589-7297,"Sebastian",FL,32958,
"Pug Rescue of Florida, Inc.",pugrescueofflorida@gmail.com,,"Windermere",FL,34786,
"PUP-EEZ  Pet Care and Rescue",info@pupeez.com,Please email,"Pembroke Pines",FL,33029,
"Puppies Under Protection Inc.",bsrj817@aol.com,561-248-1089,"Royal Palm Beach",FL,33411,
"Puppy Hill Farm Animal Rescue",puppyhill@hotmail.com,352-478-1444,"Melrose",FL,32666,
"Puppy Pimps Animal Rescue",puppypimps@gmail.com,(954) 608-7882,"Fort Lauderdale",FL,33301,
"Puppy Pleasers Rescue",puppypleasersrescue@hotmail.com,(407) 781-9457,"Orlando",FL,32861,
"Pure Hearts Rescue",kelli_tully@yahoo.com,,"Tampa",FL,33647,
"Purrfect Friends",purrfectfriendsfl@gmail.com,(321) 480-6151,"Melbourne",FL,32940,
"Purrfect Match",purrfectmatchinc@gmail.com,,"Sarasota",FL,34232,
"Purrs And Whiskers Shelter Inc.",paws50@bellsouth.net,,"Melbourne",FL,32941,
"Quality of Life Rehab and Foster",qualityofliferehab@yahoo.com,(352) 843-6858,"Ocala",FL,34475,
"R.U.F.F. Rescuing Unwanted Friendly Fidos",rdemcowgrl72@aol.com,3525440831,"Brooksville",FL,34601,
"Racing4Rescues, Inc.",racing4rescues@gmail.com,,"Pinellas Park",FL,33782,
"RAIN (Rescue Animals in Need Inc.)",rescueanimalsinneed@gmail.com,407-414-2866,"Fort Myers",FL,33906,
"Raining Cats and Dogs",merrillp316@gmail.com,754-235-7455,"Boca Raton",FL,33431,
"Raining Cats and Dogs Shelter and Sanctuary, Inc.",rainingcatsanddogsshelter@gmail.com,(813) 704-4915,"Plant City",FL,33567,
"Rapscallion to the Rescue Inc.",rapscalliontotherescue@yahoo.com,352-528-3419,"Morriston",FL,32668,
"Ratbone Rescues - Southeast Region",ratposting@yahoo.com,,"Jacksonville",FL,32241,
"RDRP - Racing Dog Retirement Project",info@rdrp.org,941-379-FAST (3278),"sarasota",FL,34276,
"Redfox's Animal Rescue",redfox4627@gmail.com,850-456-6582,"pensacola",FL,32505,
"Rescue A Dog, Inc.",info@rescueadog.org,727-939-9546,"Palm Harbor",FL,34685,
"Rescue Adoption, Inc",takeushometoday@gmail.com,772-618-3334,"Fort Pierce",FL,34982,
"Rescue One Until There Are None",wscott@theyorkez.com,(941) 320-2220,"Sarasota",FL,34243,
"Rescue Paws 4 Furry Hearts, Inc",rescuepaws3@gmail.com,305-206-5977,"Miramar",FL,33027,
"Rescued Pekes",jono@gate.net,954-566-5069,"Fort Lauderdale",FL,33339,
"Rescued Unwanted Furry Friends aka RUFF Rescue",janice@911ruff.org,850-863-7833,"Graceville",FL,32440,
"Rescuing Animals In Need",info@rescuinganimalsinneed.org,407-620-9736,"Orlando",FL,32779,
"Rocket Angel Italian Greyhound Rescue",rocketangelig@gmail.com,(239) 560-9181,"Palm Harbor",FL,34683,
"Room For One More Pet Rescue Inc",bonniea15@yahoo.com,352-341-2222,"Inverness",FL,34451,
"Royal Rescue",royalrescue@comcast.net,(941) 720-1411,"Sarasota",FL,34237,
"RSL Haven",rslhaven@gmail.com,321-604-0951,"Malabar",FL,32950,
"RU4 Me Pet Rescue",ru4mepetrescue@gmail.com,(561) 736-1313 Voice Mail,"Lake Worth",FL,33466,
"Ruff Pet Rescue",ruffpetrescue@gmail.com,954-993-7860,"Indiantown",FL,34956,
"Ruff Times Rescue",rufftimesrescueadoptions@gmail.com,352-240-1583,"Minneola",FL,34755,
"Ruff World Animal Rescue",clvaughn1@hotmail.com,321-277-8427,"Winter Park",FL,32792,
"Rugaz Rescue Inc.",adoptions@rugazrescue.com,,"New Port Richey",FL,34656,
"Running The Rail Greyhound Adoption Inc.",thegirlfl@tampabay.rr.com,(813) 293-2679,"Largo",FL,33773,
"S.A.F.E. Pet Rescue of Northeast Florida",rnordan_se1@comcast.net,904-325-0196,"St. Augustine",FL,32084,
"S.P.A.Y.-L.E.E. Inc (Society to Protect Animal Young - Legislation, Education, Enforcemen",apic@aol.com,(239) 939-3680,"Fort Myers",FL,33911,
"S.T.A.R. (Saving Terrific Animals Rescue)",star32601@aol.com,352-494-8959,"Gainesville",FL,32614,
"Safe Animal Shelter",adoptions@safeanimalshelter.com,(904) 276-7233,"Middleburg",FL,32068,
"Safe Haven Animal Rescue",mplupi47@yahoo.com,(941) 301-4875,"Bradenton",FL,34207,
"Santa Rosa County Animal Services",tarad@santarosa.fl.gov,850-983-4680,"Milton",FL,32583,
"Sarasota County Animal Services",klittle@scgov.net,941-861-9523,"Sarasota",FL,34241,
"Satchel's Last Resort",comments@satchelslastresort.org,941-924-5070,"Sarasota",FL,34241,
"Save A Life Pet Rescue",savealifepetres@aol.com,(407) 952-1858,"Oviedo",FL,32762,
"Save A Pet Florida, Inc.",saveapetflorida@gmail.com,561-835-9525,"Palm Beach",FL,33480,
"Save Our Cats and Kittens, Inc. (SOCKS)",shelter@saveourcatsandkittens.com,(850) 863-5756,"Fort Walton Beach",FL,32548,
"Save Our Cocker Spaniels, Inc.",saveourcockerspaniels@gmail.com,(386) 755-5891,"Lake City",FL,32024,
"Save Our Strays Inc.",sos@saveourstraysinc.com,727-481-5262,"Safety Harbor",FL,34695,
"Save UnderDogs",saveunderdogs@aol.com,,"Mary Esther",FL,32569,
"Saving Angels",dogs6cats9@yahoo.com,352-422-8425,"Inverness",FL,34453,
"Saving Cyrus, Inc.",savingcyrusinc@gmail.com,(407) 324-6922,"Longwood",FL,32750,
"Saving Four Paws",savingfourpaws@gmail.com,407-579-7559,"Windermere",FL,34786,
"Saving Grace and Her Furry Friends",savinggracefl@gmail.com,(954) 562-8813,"Davie",FL,33328,
"Saving Paws 4 Love",bettypolk@savingpaws4love.org,3058909310,"Miami",FL,33144,
"Saving with Soul Pet Rescue, Inc.",jennifer@jenniferallan.net,,"Crestview",FL,32539,
"Schnauzer Love Rescue, Inc.",schluv4u2@bellsouth.net,1-407-924-5711,"Orlando",FL,32952,
"Scottish Terrier Rescue of Florida",strof@scottierescueflorida.org,,"Largo",FL,33778,
"Seaside Animal Rescue, Inc.",seapawsanimalrescue@gmail.com,850-797-0526,"Santa Rosa Beach",FL,32459,
"Sebring Angels",sebringangels@gmail.com,7275053508,"Sebring",FL,33870,
"Second Chance Friends Rescue",mary.secondchance@gmail.com,,"Thonotosassa",FL,33592,
"Second Chance Rescue",bpdebig@aol.com,3863089465,"Bunnell",FL,32110,
"Second Chance Rescue & Rehoming, Inc",s.chancerescue@gmail.com,(352) 363-1364,"Gainesville",FL,32606,
"Seminole County Animal Services",dgagliano@seminolecountyfl.gov,407-665-5208,"Sanford",FL,32773,
"Sheltering Hands Inc.",shelteringhands@embarqmail.com,352-840-0663,"Williston",FL,32696,
"Shepherd Help and Rescue Effort",adoption@shepherdhelp.org,(844) 847-1250,"Pompano Beach",FL,33064,
"Shepherd Help and Rescue Effort -Palm Beach County",tara@shepherdhelp.org,,"Loxahatchee",FL,33470,
"Siberian Husky Rescue of Florida Inc.",webmaster@siberrescue.com,,"Seminole",FL,33775,
"Small Dog Rescue",pam_jerry@hotmail.com,,"Jacksonville",FL,32210,
"Smiling Dog Rescue Florida",smilingdogrescueflorida@outlook.com,407-494-8596,"Melbourne",FL,32940,
"Sniffing Snouts Pit Bull Rescue",contact@sniffingsnouts.com,,"Winter Park",FL,32792,
"Sobol Veterinary Hospital",drsobol@sobolvethospital.com,(954) 680-5777,"Davie",FL,33330,
"Sophie's Circle Dog Rescue",sophiescircle@aol.com,,"New Smyrna Beach",FL,32168,
"SOS4Paws, Inc.",suely@aattours.com,954-921-3838,"Hollywood",FL,33020,
"South Brevard German Shepherd Rescue",adopt@sbgsr.com,321-724-8873,"Palm Bay",FL,32905,
"South Lake Animal League",adoptions@theanimalleague.org,(352) 429-6334,"Clermont",FL,34712,
"SouthBARK Animal Rescue",adopt@southbarkanimalrescue.org,,"Pensacola",FL,32524,
"SouthEast Beagle Rescue Inc.",saveabeagle@sebr.org,855-422-3245,"Tampa",FL,33688,
"Southwest Florida House Rabbit Rescue",swflrabbits@gmail.com,(410) 382-2433,"Naples",FL,34103,
"Southwest Great Dane Rescue",savethedanes@gmail.com,(863) 255-4068,"Ruskin",FL,33570,
"Space Coast Feline Network",sandygmeow@aol.com,,"Cocoa",FL,32923,
"Spay the Strays Inc.",spaythestrays@aol.com,407-460-2305,"St. Cloud",FL,34770,
"SPC Veterinary Technology Program",vtkennel@spcollege.edu,727-302-6768,"Largo",FL,33774,
"SPCA Florida",adopt@spcaflorida.org,863-646-7722,"Lakeland",FL,33813,
"SPCA of Brevard",spcadogs@spcanorthbrevard.com,321 567-3615,"Titusville",FL,32781,
"SPCA of North Florida",spcagainesville@hotmail.com,(352) 339-3352,"Gainesville",FL,32653,
"SPCA TAMPA BAY",adoptions@spcatampabay.org,727-586-3591,"Largo",FL,33773,
"St Augustine Humane Society",adoptions@staughumane.org,904-829-2737,"St Augustine",FL,32084,
"St. Francis Society Animal Rescue",animals@stfrancisrescue.org,,"Tampa",FL,33685,
"St. Johns County Animal Control/Pet Center",thembree@sjcfl.us,9042096190,"St.Augustine",FL,32095,
"St. Joseph Bay Humane Society",rodgerscaisey@gmail.com,(850) 227-1103,"Port Saint Joe",FL,32456,
"Standard Poodle Rescue",brenda@standardpoodlerescue.net,(850) 478-2466,"Pensacola",FL,32514,
"Stray Aid & Rescue, Inc.",mail@strayaid.org,(954) 816-0799,"Fort Lauderdale",FL,33315,
"Stray and Feral Cat Rescue Inc",bedelmaier@aol.com,954 429 3160,"Deerfield Beach",FL,33441,
"Sumter County Florida Animal Advocates, Inc.",sumtercountyfloridaanimaladvocates@outlook.com,813-833-1821,"Webster",FL,33597,
"Suncoast Animal League",info@suncoastanimalleague.org,(727) 786-1330,"Palm Harbor",FL,34684,
"Suncoast Basset Rescue Inc.",karen@suncoastbassetrescue.org,(352) 371-8082,"Gainesville",FL,32606,
"Suncoast Humane Society",adoptions@humane.org,(941) 474-7884,"Englewood",FL,34224,
"Suncoast Keeshond Rescue",deewingfield@gmail.com,(727) 534-9002,"Elfers",FL,34680,
"Sunshine State Animal Rescue",ssar2015@outlook.com,,"Navarre",FL,32566,
"Sunshine State Westie Rescue",ss.westies@yahoo.com,,"Ponte Vedra Beach",FL,32004,
"Swamp Haven Rescue",adopt@swamphaven.org,(360) 672-8266,"Elkton",FL,32033,
"T.E.A.R.S., Inc.",kris@tearsofseminolecounty.org,407-314-1052,"Lake Monroe",FL,32747,
"Tallahassee Animal Services",sheltervolunteer@talgov.com,850-891-2950,"Tallahassee",FL,32311,
"Tallahassee Big Dog Rescue",info@bigdogrescue.com,850-562-3200,"Tallahassee",FL,32317,
"Tallahassee Pets Alive",info@tallahasseepetsalive.org,850-728-0637,"Tallahassee",FL,32301,
"Tampa Bay Beagle Rescue Inc",info@tampabaybeaglerescue.org,(813) 446-9663,"Tampa",FL,33556,
"Tampabay Cat Alliance inc.",tbcatalliance@gmail.com,727- 697-2888,"Port Richey",FL,34668,
"TANKS,Inc",macattack777@comcast.net,(941) 822-0300,"Myakka City",FL,34251,
"TBVES Rescue - Tampa BayVeterinary Emergency Services",steve@tbves.com,(813) 486-0124,"Tampa",FL,33613,
"Tender Heart Charities Inc.",tenderheartcharitiesinc@gmail.com,(941) 225-9774,"Sarasota",FL,34232,
"That Black Dog Rescue",thatblackdogrescue@gmail.com,,"Miami",FL,33125,
"The Animal Rescue & Adoption Agency (TARAA)",jaxtaraa@yahoo.com,,"Jacksonville",FL,32226,
"The Cat Network Inc.",info@thecatnetwork.org,(305) 255-3482,"Miami",FL,33234,
"The Dog Liberator",adopt.thedogliberator@gmail.com,,"Deltona",FL,32738,
"The Furever Family Rescue",thefureverfamilyrescue@gmail.com,(513) 813-8337,"Lighthouse Point",FL,33064,
"The Humane Society Naples",shelter@hsnaples.org,239 643-1555,"Naples",FL,34104,
"The Joy Committee Inc",jcommittee1@gmail.com,(850) 207-3202,"Navarre",FL,32566,
"The Little Cats' Rescue, Inc.",thelittlecats@gmail.com,(727) 359-9629,"New Port Richey",FL,34653,
"The London Sanctuary",londonsanctuary@aol.com,,"Glen St Mary",FL,32040,
"The Mylo Foundation",themylofoundation@gmail.com,(850) 994-0908,"Milton",FL,32583,
"The Pit Bull Crew",info.pitbullcrew@gmail.com,(570) 460-6890,"North Fort Myers",FL,33903,
"The Rescued Rescuers, Inc.",rescuersapps@gmail.com,850-000-0000,"Fort Walton Beach",FL,32549,
"The Southern Dog, Inc.",info@thesoutherndog.com,,"Ft Walton Beach",FL,32549,
"The Way Home",thewayhomerescue@gmail.com,(407) 405-3701,"Orlando",FL,32804,
"This Is The Dog!",adopt@thisisthedog.com,305-508-7387,"Homestead",FL,33030,
"Thoroughbred Retirement of Tampa, Inc. (commonly referred to as TROT)",info@tampatrot.org,352-356-8768,"Oldsmar",FL,34677,
"Tri-County Animal Rescue",tricountyfrontdesk@gmail.com,(561) 482-8110,"Boca Raton",FL,33431,
"Tropical Feline Rescue Inc.",kloran@earthlink.net,,"Brooksville",FL,34601,
"True & Faithful Pet Rescue Mission,Inc",truefaithfulrescuemission@yahoo.com,(941) 234-6531,"venice",FL,34292,
"True Friend Rescue",audreyladell@gmail.com,(484) 844-0374,"Lake Placid",FL,33852,
"UnderDog Rescue of Florida",sotto11@verizon.net,941-746-WOOF(9663),"Bradenton",FL,34208,
"United Humanitarians/Jr. Humane Society",frankiegone2dogs@aol.com,(850) 968-3260,"Cantonment",FL,32533,
"United Yorkie Rescue",mbslen@yahoo.com,,"Miami",FL,33133,
"VCA Gulf Bay Animal Hospital",kimbervet1@gmail.com,7277975107,"Clearwater",FL,33765,
"Venice Doberman Rescue, Inc",tmar5557@aol.com,(941) 809-7942,"Venice",FL,34293,
"VIP Rescue",info@viprescue.org,,"Clearwater",FL,33755,
"VIP Rescue of Central Florida, Inc.",contact@viprescuecfl.org,407-504-8318,"Maitland",FL,32794,
"Voices of Chance Animal League, Inc. (VOCAL)",crystal@bevocal.org,850-668-5999,"Tallahassee",FL,32312,
"Voices of Change Animal League (VOCAL)",adoptions@vocalforpets.org,(352) 289-0800,"Ocala",FL,34471,
"Volunteer Services for Animals Inc.",vsarescue@aol.com,(239) 290-6274,"Naples",FL,34108,
"Wags & Whiskers Pet Rescue, Inc.",wagsandwhiskers@att.net,904-797-6039,"Saint Augustine",FL,32086,
"We Love Animals Rescue, Inc.",weloveanimalsrescue@gmail.com,(954) 296-8208,"Hollywood",FL,33021,
"Wedgefield Kitty Project",wedgefieldkittyproject@aol.com,,"Orlando",FL,32833,
"Whiskers & Tails Rescue",whiskersandtailsrescue@hotmail.com,,"Miami",FL,33186,
"Williston Animal Group",info@willistonanimalgroup.com,352-528-9888,"Williston",FL,32696,
"With Love for the Animals",withlovefortheanimals@gmail.com,,"Lantana",FL,33462,
"Wonder Dog Rescue, Inc.",mickelealy@aol.com,321-795-9412,"Palm Bay",FL,32905,
"Xtreme Rescue Inc.",xtremerescueinc@yahoo.com,(305) 247-6555,"Homestead",FL,33032,
"Yoshi's Family Rescue Ranch",yoshisrescue@gmail.com,386-747-7668,"Orange City",FL,32763,
"YouCanMakeADifference, Inc.",ycmad2733@gmail.com,8502708793,"Gretna",FL,32352,
"Ziggy Beagle Rescue",zgbglrsq@bellsouth.net,,"Palm Bay",FL,32908,
"Ziggy's Haven Bird Sanctuary",info@ziggyshaven.org,(352) 422-1870,"Inverness",FL,34453,