Name,Email,Phone,City,State,Zip,Website
"4 Paws Dog Rescue of NJ",info@4pawsnj.org,,"Newfield",NJ,8344,
"4 Paws With A Cause Rescue",4pawswithacause@comcast.net,(609) 257-3701,"Medford",NJ,8055,
"911 Dog and Cat Rescue",911dogrescue@gmail.com,(908) 763-2040,"Morristown",NJ,7960,
"A Helping Wing Parrot Rescue",adoptions@ahelpingwing.org,845-475-8249,"Blairstown",NJ,7825,
"A Hoppy Tail",adopt@ahoppytail.com,(973) 555-1212,"Long Valley",NJ,7853,
"A Pathway to Hope",info.pathwaytohope@gmail.com,(973) 555-1111,"North Haledon",NJ,7508,
"A Purrfect World",mail4kristina@aol.com,EMAIL ONLY,"Bloomfield",NJ,7003,
"A Voice for Paws",avoiceforpaws.adoptions@gmail.com,(856) 318-6870,"Sewell",NJ,8080,
"A.F.E.W. - Animal Friends for Education and Welfare, Inc.",afew_pets@comcast.net,,"Hightstown",NJ,8528,
"ABC Inc.",abcpetfinder@gmail.com,(732) 779-2220,"Pine Beach",NJ,8741,
"Addison Rescue",mpetrone@chubb.com,(908) 612-4551,"Milford",NJ,8848,
"Adopt A Setter",irishrescue1@aol.com,,"Whitehouse Station",NJ,8889,
"Adopt-a-Pet",spayme@aol.com,,"Freehold",NJ,7728,
"AHS-Tinton Falls",tintonfallsahs@aol.com,(732) 922-0100,"Tinton Falls",NJ,7753,
"Alan Purcell Wayne Township Animal Shelter",animalshelter@waynetownship.com,(973) 694-0767,"Wayne",NJ,7470,
"All 4 The Dogs Rescue",all4thedogsrescue@verizon.net,609-789-3464,"Roosevelt",NJ,8555,
"All Critters Rescue, Inc.",allcrittersrescue@yahoo.com,,"Spotswood",NJ,8884,
"All Fur Love Animal Rescue, Inc.",info@allfurlove.org,732-982-7235,"Freehold",NJ,7728,
"All God's Creatures Inc.",allgodscreaturesoneark@gmail.com,(609) 203-1835,"Hightstown",NJ,8520,
"All Humane Animal Rescue",animalinfo@yahoo.com,973-616-8569,"Wanaque",NJ,7465,
"All Our Orphans",doggie54@optonline.net,973-886-1485,"Randolph",NJ,7869,
"All Star Pet Rescue",allstarpets@comcast.net,,"Linden",NJ,7036,
"Almost Home Animal Rescue of South Jersey",almosthomeanimalrescuesj@gmail.com,(609)846-3079,"Ocean View",NJ,8230,
"Almost Home Animal Shelter",almosthomeshelter@comcast.net,856-663-3058,"Pennsauken",NJ,8109,
"Almost Home Dog Rescue of NJ",adopt@ahdrnj.com,,"Allendale",NJ,7401,
"American Maltese Association Rescue",vcannonlady@aol.com,,"Blairstown",NJ,7825,
"American Rescue Dog",americanrescue@gmail.com,888-772-0172,"Brick",NJ,8723,
"Angel Pets Animal Welfare Society Inc.",info@angelpaws.org,(732) 340-1199,"Colonia",NJ,7067,
"Angels for Animals Network",gjuric.afan66@gmail.com,(201) 655-5059,"Cliffside Park",NJ,7010,
"Angels Helping Animals",angelshelpinganimalsnj@gmail.com,(856) 979-3284,"Moorestown",NJ,8057,
"Angels of Animals Inc.",amy@angelsofanimals.org,,"Clifton",NJ,7013,
"Animal Adoption Center",info@animaladoption.com,856.435.9116,"Lindenwold",NJ,8021,
"Animal Alliance",animalalliance@comcast.net,609-818-1952,"Lambertville",NJ,8530,
"Animal Allies",animalally@gmail.com,(609) 737-2380,"Pennington",NJ,8534,
"Animal Assistance",linda@animalassistance.org,(732) 251-3210,"East Brunswick",NJ,8816,
"Animal Life Savers Inc.",elaine@animallifesavers.org,201-335-PETS,"Palisades Park",NJ,7650,
"Animal Outreach of Cape May County Inc.",info@aocmc.org,609-898-1PET,"Cape May",NJ,8242,
"Animal Relief Foundation",nootz01@aol.com,732-657-0295,"Manchester",NJ,8733,
"Animal Rescue Force",susanmaer@aol.com,(732) 257-7559,"East Brunswick",NJ,8816,
"Animal Rescue R Us",animalrescuerus@aol.com,,"Lodi",NJ,7644,
"Animal Sanctuary Society Inc.",animalsanctuarys@aol.com,(856) 642-0004,"Mount Laurel",NJ,8054,
"Animal Welfare Association",adoptions@awanj.org,856-424-2288,"Voorhees",NJ,8043,
"Animals In Distress, Inc.",aid4cats@gmail.com,(609) 585-5442,"Hamilton",NJ,8620,
"Another Chance 4 Dogs",ac4dogs@gmail.com,908-625-6358,"Frenchtown",NJ,8825,
"ARF of Mercer",arfofmercer@gmail.com,,"Ewing",NJ,8638,
"Ark of Promise Rescue",arkofpromise@aol.com,609-204-4138,"Browns Mills",NJ,8015,
"Atlantic County Animal Shelter",kelsey_kathy@aclink.org,(609) 485-2345,"Pleasantville",NJ,8232,
"Atlantic County Canines",atlanticcountycanines@yahoo.com,,"Egg Harbor Township",NJ,8234,
"Aunt Marys Dog House",auntmarysdoghouse@yahoo.com,908-362-1333,"Montclair",NJ,7043,
"Ava's Rescue",zippykay@comcast.net,(609) 397-2669,"Lambertville",NJ,8530,
"Balanced Buddies Res-Q",balancedbuddiesresq@gmail.com,8569867190,"Atco",NJ,8004,
"BARKS",petadoptionportal@barksinc.com,,"Stanhope",NJ,7874,
"Bayonne Feral Cat Foundation",twiggycat@aol.com,201 823-2363,"Bayonne",NJ,7002,
"Beacon Animal Rescue",beaconanimalrescues@gmail.com,(609) 390-7946,"Ocean View",NJ,8230,
"Bergen County Animal Shelter",shelter@co.bergen.nj.us,(201) 229-4600,"Teterboro",NJ,7608,
"Bergen County Protect and Rescue Foundation",rescueme@bcrescues.org,(201) 945-0649,"Cliffside Park",NJ,7010,
"Bernards Township",msantoro@bernards.org,908-204-3066,"Basking Ridge",NJ,7920,
"Best Friend Dog and Animal Adoption, Inc.",bfdaaa@gmail.com,,"Cranford",NJ,7016,
"Bichon Frise Rescue of NNJ Inc.",nnjbichonrescue@yahoo.com,,"West Orange",NJ,7052,
"Big East Akita Rescue",bigeastakitarescue@verizon.net,(609) 388-7004,"Toms River",NJ,8753,
"Bloomfield Animal Shelter  - John A. Bukowski Shelter for Animals",adoptatbas@yahoo.com,(973) 748-0194,"Bloomfield",NJ,7003,
"Bloomingdale Regional Animal Shelter Society",bass@bassshelterpets.org,973-838-2220,"Bloomingdale",NJ,7403,
"Bonnies Animal Rescue Kingdom",boniark15@gmail.com,,"Paramus",NJ,7653,
"Bordentown City Cats",btowncitycats@gmail.com,609-324-3896,"Bordentown",NJ,8505,
"Brendan's Meadows Rescue",brendansmeadows@yahoo.com,(908) 456-1163,"Mountainside",NJ,7092,
"Brick City Rescue, Inc",info@brickcityrescue.com,(973) 938-2385,"Lincoln Park",NJ,7035,
"Bridges To Safety",bridgesdogsmail@gmail.com,732-859-8915,"Forked River",NJ,8731,
"Bright Starz Neu-Life Animal Rescue, Inc.",bsnlar@optimum.net,(973) 747-5464,"Haskell",NJ,7420,
"BullMastiff Rescuers",jonicavanaugh@gmail.com,,"Pottersville",NJ,7979,
"Bully Rescue Warriors",bullyrescuewarriors@gmail.com,,"Hamburg",NJ,7419,
"Burlington County Animal Alliance",jajachris@aol.com,,"Willingboro",NJ,8046,
"Burlington County Animal Shelter",kdonnelly@co.burlington.nj.us,(609) 265-5073,"Mount Holly",NJ,8060,
"C.A.R.E. Companion Animal Rescue & Education",carenjrescue@yahoo.com,,"Old Bridge",NJ,8857,
"Calling All Cats Rescues",callingallcatsrescues@gmail.com,1-732-773-0809,"Toms River",NJ,8753,
"Camden Companions Animal Rescue",admin@camdencompanions.org,,"Cherry Hill",NJ,8002,
"Camden County Animal Shelter",info@ccasnj.org,856-401-1300,"Blackwood",NJ,8012,
"Cameron Animal Hospital (not a shelter)",cahadoptions@gmail.com,(973) 744-2052,"Montclair",NJ,7042,
"Cane Corso Rescue",tammy@canecorsorescue.org,,"Monroe",NJ,8831,
"Cape-Atlantic C.A.T.S.",wehelpcats@msn.com,(609) 399-4228,"Ocean City",NJ,8226,
"CAPIC, Cat Adoption & Pet Information Center",catnabber1@yahoo.com,908-392-4238,"Raritan",NJ,8869,
"Caring About The Strays (C.A.T.S.) Inc.",care4strays@optonline.net,(201) 666-5444,"Westwood",NJ,7675,
"Caring Canine Connections",contact@thecccrescue.com,,"Bridgewater",NJ,8807,
"Carols Cats",carolscatsrescue@gmail.com,908-874-4660,"Belle Mead",NJ,8502,
"Cattitude Inc",njcattitude@gmail.com,1-732-491-5696,"Highland Park",NJ,8904,
"Cause 4 Paws Inc.",c4pcats@aol.com,(908)377-4579,"Westfield",NJ,7091,
"Chance at Life Cat Rescue",chanceatliferescue@gmail.com,(201) 982-2219,"River Edge",NJ,7661,
"Chelseas Hope Boxer Rescue",boxergalnj@aol.com,888-687-6777,"Dumont",NJ,7628,
"CLAWS",clawsadopt@yahoo.com,(201) 768-0200,"Closter",NJ,7624,
"Close to Home Rescue & Sanctuary Inc",doggiedogrescue@aol.com,(973) 715-2113,"Pompton Lakes",NJ,7442,
"Coalition of Advocates for Shelter Animals",jaea3@aol.com,,"Parlin",NJ,8859,
"Cold Nose Warm Heart Dog Rescue",coldnosewarmheartdogrescue@gmail.com,,"Succasunna",NJ,7876,
"Collie and Ibizan Rescue of Central New Jersey",ruffcollies@outlook.com,,"Washington",NJ,7882,
"Common Sense for Animals",tyfaneef@gmail.com,908-859-3060,"Broadway",NJ,8808,
"Communities Altering The Strays (CATS)",catsincorporated@comcast.net,908-453-0082,"Belvidere",NJ,7823,
"Community Pet Care",adoptions.communitypetcare@gmail.com,,"Palmyra",NJ,8065,
"Companion Animal Placement",p_drumgoole@yahoo.com,(201) 424-5697,"Hoboken",NJ,7030,
"Companion Animal Trust",companionanimaltrust@yahoo.com,Please email,"Jersey City",NJ,7304,
"Crossed Paws Rescue",enlightened34@aol.com,,"Phillipsburg",NJ,8865,
"Cuddly Creatures Inc. Animal Rescue and Adoptions",cuddlycreaturesinc@yahoo.com,,"Manalapan",NJ,7726,
"Cumberland County SPCA and Animal Shelter",adoptions@cumberlandcountyspca.org,856-691-1500,"Vineland",NJ,8360,
"Daniel's Dream",joedwyer1207@gmail.com,973-780-7577,"Nutley",NJ,7110,
"daps animals",dapsanimals@gmail.com,,"Bloomfield",NJ,7003,
"Delaware Valley Bichon Rescue",bichonrescue@gmail.com,(856) 829-7615,"Cinnaminson",NJ,8077,
"Diamond Dogs Rescue",tkdiamond@aol.com,(856) 498-8166,"Mount Holly",NJ,8060,
"Don't Bully Us Rescue",adoptions@dbur.org,,"Wenonah",NJ,8090,
"Doodle Rescue Collective Inc.",info@doodlerescuecollectiveinc.org,,"Montclair",NJ,7042,
"Dream Home Rescue",dreamhomerescue@yahoo.com,,"Marlton",NJ,8053,
"EASEL",kazarchi@easelnj.org,609-883-0540,"Ewing",NJ,8628,
"East Coast Maine Coon Rescue",rescue@ecmcr.org,,"Hazlet",NJ,7730,
"East Coast Paws n Claws",ecpcrescue@gmail.com,(609) 549-0468,"Toms River",NJ,8753,
"Edison Municipal Animal Shelter",emasmanager@edisonnj.org,732-248-7278,"Edison",NJ,8817,
"Elaines Foundation for Homeless Felines",effeline@comcast.net,201-410-7280,"Lyndhurst",NJ,7071,
"Eleventh Hour Rescue",mainoffice@ehrdogs.org,9736640865,"Rockaway",NJ,7866,
"Fassa's Friends Boxer Rescue, Inc.",fassasfriends@gmail.com,(856) 889-0832,"Turnersville",NJ,8012,
"Father John's Animal House",info@fatherjohns.org,973-300-5909,"Lafayette",NJ,7826,
"Feeding The Forgotten",contact@feedingtheforgotten.org,,"Parsippany",NJ,7054,
"Feline Urban Rescue And Rehab Inc.",info@felineurbanrescueandrehab.org,610-588-7604,"Stewartsville",NJ,8886,
"Feral Angels",info@feralangels.org,856-204-CATS,"Camden",NJ,8104,
"Fetch Me A Home Pet Rescue",fetchmeahome@comcast.net,(609) 312-3063,"Lanoka Harbor",NJ,8734,
"Final Hope Animal Rescue and Sanctuary",info@finalhope.org,,"Jersey City",NJ,7307,
"FIVER Cats",info@fivercats.com,,"Montclair",NJ,7042,
"Fly Away Home Inc.",digdoggies3@aol.com,201-519-4708,"Palisades Park",NJ,7650,
"FOCAS",info@focasnews.org,201-943-4019,"Hasbrouck Heights",NJ,7604,
"For Bunny Sake Rabbit Rescue",forbunnysake@aol.com,,"Maple Shade",NJ,8052,
"For The Love of Birds",fortheloveofbirdsnj@gmail.com,(609) 582-4909,"Hightstown",NJ,8520,
"Forever Families for Felines",laydeejoey@aol.com,(908) 757-7030,"South Plainfield",NJ,7080,
"Forgotten Tails Inc",forgottentailsinc@gmail.com,,"Bloomfield",NJ,7003,
"FOWA",fowaadoptions@yahoo.com,(973) 902-7515,"Wayne",NJ,7470,
"Friends of Animal Control Solutions",acsrescue@yahoo.com,,"Whitehouse",NJ,8889,
"Friends of Homeless Animals",foha@sbcglobal.net,888-224-7045,"Hawthorne",NJ,7506,
"Friends of Linden Animal Shelter, Inc.",folasinfo@gmail.com,,"Linden",NJ,7036,
"Friends of Lord Stirling Stable",cbrosen@att.net,908.672.2806,"Basking Ridge",NJ,7920,
"Friends of Rocky Mount. Animals (F.O.R.Animals)",foranimals2002@aol.com,,"Cape May",NJ,8753,
"Friends of Sochi Dogs",info@sochidogs.org,,"Morristown",NJ,7960,
"Friends of the Clifton Animal Shelter",cliftondogs1@gmail.com,973-470-5936,"Clifton",NJ,7015,
"Fur Friends In Need, Inc.",imavegge@aol.com,732-829-1426,"Hazlet",NJ,7730,
"Furever Home Dog Rescue",fureverhomedogrescue@gmail.com,,"Randolph",NJ,7869,
"Furrever Friends Rescue & Volunteers, Inc.",adoptions@furreverfriendsrescue.org,(856) 845-8554,"Woodbury",NJ,8090,
"Furry Angels Rescue",furryangelsresq@gmail.com,Please Email!,"Elwood",NJ,8217,
"FurryTail Endings Canine Rescue",sdaniele@furrytailendingscaninerescue.org,,"Flemington",NJ,8822,
"Garden State German Shepherd Rescue",gsrescue@gsgsr.org,(201) 794-4746,"Millburn",NJ,7041,
"Gateway Regional Rescue NJ",grrnewjersey@gmail.com,,"Stewartsville,",NJ,8886,
"Gloucester County Animal Shelter",gcas@co.gloucester.nj.us,856-881-2828,"Clayton",NJ,8312,
"Good Karma Dog Rescue",goodkarmadogrescue@gmail.com,,"River Vale",NJ,7675,
"Green Mile Rescue",greenmilerescuenj@gmail.com,9737690804,"Morris Plains",NJ,7950,
"Greyhound Angels Adoption of New Jersey",gaagreyhounds@yahoo.com,856-292-8780,"Millville",NJ,8332,
"Greyhound Friends of New Jersey Inc",lelyman7@verizon.net,732-356-4370,"Cherry Hill",NJ,8034,
"GSP Rescue of NJ",gsprescuenj@hotmail.com,,"Oak Ridge",NJ,7438,
"Halfway Hounds",adopt@halfwayhounds.org,201-497-4DOG  (4364),"Park Ridge",NJ,7656,
"Happy Feet Cat Rescue",happyfeetcatrescue@gmail.com,201-867-4795,"Secaucus",NJ,7094,
"Happy Homes Animal Rescue",elaine@happyhomesinc.org,914-393-8292,"Old Bridge",NJ,8857,
"Happy Paws Rescue Inc.",happypawsrescue@gmail.com,(732) 597-4524,"South Plainfield",NJ,7080,
"Helping All Little Things",adoptions@halfrescue.com,,"Florence",NJ,8518,
"Here Kitty Kitty",lmeowser1@gmail.com,(862) 668-4454,"Paterson",NJ,7504,
"HiArbor, Inc.",hiarborcares@aol.com,609-432-5167,"Galloway",NJ,8205,
"High Mountain Animal Rescue, Inc.",rosco798@optonline.net,,"North Haledon",NJ,7508,
"Hodes Veterinary Group",seabreezegsd@aol.com,973-328-7113,"Mine Hill",NJ,7803,
"Holisticat Rescue and Rehabilitation",holisticatrnr@yahoo.com,,"Woodbridge",NJ,7095,
"Home For Good Dog Rescue",info@hfgdr.org,(908) 598-8212,"Berkeley Heights",NJ,7922,
"Home Free Animal Rescue",homefreeanimalrescue@gmail.com,(732) 692-7155,"Red Bank",NJ,7701,
"Home Sweet Home Animal Rescue",homesweethomeanimalrescue@hotmail.com,973-222-2199,"Denville",NJ,7834,
"Homeless Animal Rescue Team, Inc.",hartrescue213@yahoo.com,,"Westfield",NJ,7090,
"HOMELESS HEARTS DOG RESCUE",gone2thedawgz@yahoo.com,,"Somerset",NJ,8873,
"Homeless Paws",sherrispyder@aol.com,,"Manahawkin",NJ,8050,
"Hope For Animals",kittyadopt@gmail.com,(732) 549-1270,"Manalapan",NJ,7726,
"Horse Rescue United",lunar_aradia@yahoo.com,,"Howell",NJ,7731,
"Howling Woods Farm",luv2howl@optonline.net,732-534-5745,"Jackson",NJ,8527,
"Hudson County Animal League (HCAL)",adopt@hcalnj.org,201-200-1008,"Jersey City",NJ,7303,
"Hudson Haven Dog Rescue",hudsonhavendogrescue@gmail.com,2012401548,"Jersey City",NJ,7307,
"Hug-a-Bunny Rabbit Rescue, Inc.",hugabunny@gmail.com,,"Waldwick",NJ,7463,
"Hugs and Hope For Homeless Pets",hugsandhopeforhomelesspets@gmail.com,,"New Brunswick",NJ,8903,
"Hugs For Hounds",lilbearsclaw@gmail.com,,"Washington Township",NJ,7676,
"Humane Society of Bergen County/Lost Pet Inc.",hsbcnj@aol.com,(201)896-9300,"Lyndhurst",NJ,7071,
"Humane Society of Ocean City",info@hsocnj.org,(609) 398-9500,"Ocean City",NJ,8226,
"Hunterdon Somerset Animal Rescue Center",hunterdonsomersetarc@gmail.com,908-892-8166,"Bridgewater",NJ,8807,
"Husky House",huskyhouseinc@gmail.com,email only please,"Matawan",NJ,7747,
"Island Puppy Rescue, Inc.",islandpups@msn.com,,"Middlesex",NJ,8846,
"It's a Dogs Life Rescue of NJ",itsadogsliferescueofnj@yahoo.com,609-712-6144,"Cream Ridge",NJ,8514,
"Italian Greyhound Rescue Network-NJ/Eastern PA",cityiggies@me.com,212.387.0100,"Manalapan",NJ,7726,
"Its A Ruff Life Rescue",aruffliferescue@gmail.com,,"Hamilton",NJ,8690,
"J  and Co Rescue",jandcodogrescue@gmail.com,,"Franklinville",NJ,8322,
"Jefferson Township Municipal Pound",jtmpvolunteer@gmail.com,(973) 663-3241,"Lake Hopatcong",NJ,7849,
"Jersey Girls Animal Rescue",jerseygirlsanimalrescue@gmail.com,,"South Plainfield",NJ,7080,
"Jersey Shore Animal Center",info@jerseyshoreanimalcenter.org,(732) 920-1600,"Brick",NJ,8723,
"Jersey Shore Animal Foundation",kim@jerseyshoreanimalfoundation.org,,"Lakehurst",NJ,8733,
"Jersey State Feline Fanciers Inc",jerseystatecatshow@comcast.net,(856) 753-9115,"Atco",NJ,8004,
"Jersey Tails",jerseytailscats@gmail.com,,"Jersey City",NJ,7302,
"JerseyCats",info@jerseycats.org,201.305.3436,"Jersey City",NJ,7303,
"Joa's Arc",joasarc@gmail.com,,"Audubon",NJ,8106,
"Joe Joe's Place Animal Sanctuary",staff@joejoesplace.org,(609) 451-0482,"Medford",NJ,8055,
"Jonah's Ark Animal Rescue",jonahsarkanimalrescue@gmail.com,(732) 232-5954,"Whiting",NJ,8759,
"K-9s In Need",sming@mingtech.net,email only,"Millstone",NJ,8535,
"Karma Cat + Zen Dog Rescue Society",adoption@karmacatzendog.org,732-568-4694,"East Brunswick",NJ,8816,
"Kimmy's Safe Haven Rescue",ksb08087@comcast.net,(609) 713-4278,"Little Egg Harbor Twp",NJ,8087,
"Kind Heart Rescue",k911rescue@aol.com,6092862191,"Cream Ridge",NJ,8533,
"Kinnelon Volunteer Animal Shelter",shelter@kvasnj.org,973-283-4120,"Kinnelon",NJ,7405,
"Kizzy's Place",kizzysplacenj@gmail.com,856-238-1229,"Vineland",NJ,8361,
"Labradors + Friends",labf2@earthlink.net,,"Parsippany",NJ,7054,
"Lambertville Animal Welfare",info@lambertvilleanimalwelfare.org,609-397-0461,"Lambertville",NJ,8530,
"Lawyers In Defense of Animals (LIDA)",mdpa314@gmail.com,908-756-7521,"Plainfield",NJ,7060,
"Liberty Humane Society",lhs@libertyhumane.org,201-547-4147,"Jersey City",NJ,7305,
"Lifeline Animal Rescue Inc.",lifelineinfo@aol.com,,"Warren",NJ,7059,
"Lilo's Promise Animal Rescue",lilospromise@live.com,856-207-7818,"Voorhees",NJ,8043,
"Livingston, NJ Animal Shelter",acosalvadore@livingstonnj.org,(973) 992-3000,"Livingston",NJ,7039,
"Lonely Grey Rescue",lonelygreyrescue@gmail.com,7325855559,"Woodbridge",NJ,7095,
"Lost Dog Search and Rescue",debbie@ilostmydog.org,732-240-4181,"Toms River",NJ,8757,
"Lost Paws Animal Rescue",lostpawsrescue@embarqmail.com,908-331-1551,"Bridgewater",NJ,8807,
"Love Pups Pet Rescue",furkidsbulldogs@aol.com,609-709-7010,"Waretown",NJ,8758,
"Luv Furever Animal Rescue - Eatontown",luvfureveranimalrescue@yahoo.com,,"Eatontown",NJ,7724,
"Lynn's Animal Rescue",lynnsanimalrescue@gmail.com,(856) 979-4564,"Marlton",NJ,8053,
"Maddie & Friends Inc",spaythatcat@hotmail.com,856 935 1763,"Salem",NJ,8079,
"Mama's-gona Rescue",mamasgonarescue@yahoo.com,7326910036,"Tuckerton",NJ,8087,
"MatchDog Rescue",matchdogrescue@gmail.com,(856) 628-1292,"Moorestown",NJ,8057,
"MEOW Inc",tnr@meowinc.org,,"Eatontown",NJ,7724,
"Meows Kitty Cat Rescue Inc.",phillyjeanemeows@gmail.com,(862) 438-0311,"West Orange",NJ,7052,
"Mid-Atlantic Basset Hound Rescue",info@midatlanticbassets.com,908-256-0598,"Washington",NJ,7882,
"Miss Pats Cats",misspatscats@yahoo.com,,"East Orange",NJ,7017,
"Montclair Township Animal Shelter",mtas@montclairnjusa.org,973-744-8600,"Montclair",NJ,7042,
"Morgan Le Fay Cat Rescue",morganlefay@optonline.net,,"South Orange",NJ,7079,
"Mostly Shepherds Rescue",libcook@aol.com,(732) 671-3708,"New Monmouth",NJ,7748,
"Mt. Olive TNR Project",mtolivetnr@gmail.com,973-804-6273,"Flanders",NJ,7836,
"Mt. Pleasant Animal Shelter",info@njshelter.org,973-386-0590,"East Hanover",NJ,7936,
"Mulligan Animal Rescue Inc.",info@mulligananimalrescue.com,,"Mount Royal",NJ,8061,
"New Jersey Schnauzer Rescue Network Inc",info@njsrn.org,(732) 920-8242,"Fanwood",NJ,7023,
"Ney Ney Cat Rescue",neyneycatrescue@gmail.com,7329385830,"Howell",NJ,7731,
"NICE DOG & Howlin4Spirit Companion Animal REScue",howlin4spirit@gmail.com,(828) 245-8256,"Egg Harbor Township",NJ,8234,
"NJ Aid for Animals, Inc.",info@njafa.org,,"Cedar Brook",NJ,8081,
"NJ Puppy Rescue Inc.",rescue-me@earthlink.net,,"Milford",NJ,8848,
"North Jersey Community Animal Shelter",njcas4adoption@gmail.com,(973) 850-6767,"Bloomingdale",NJ,7403,
"North Jersey Guinea Pig and Hamster Rescue, Inc.",carlahcpa@aol.com,,"Budd Lake",NJ,7828,
"Ocean County Animal Facility - North",nocaf@ochd.org,732-657-8086,"Jackson",NJ,8527,
"ODAT - One Dog at a Time",odat_adopt1@verizon.net,,"Riverside",NJ,8075,
"One Love Animal Rescue LLC",slhawkins16@msn.com,609-670-8379,"Mount Laurel",NJ,8054,
"One Step Closer Animal Rescue (O.S.C.A.R.)",oscarrescue@yahoo.com,Please Email for Info,"Sparta",NJ,7871,
"Only Kindness, Inc.",info@onlykindnessrescue.org,(973) 897-7170,"Wayne",NJ,7470,
"Only Maine Coons Rescue",info@omcrescue.org,,"Absecon",NJ,8201,
"Oodles of Doodles Rescue Collective",oodlesofdoodles-rescue@yahoo.com,,"Jackson",NJ,8527,
"Orphaned Pets, Inc.",carolmonj@aol.com,973-882-8363,"West Caldwell",NJ,7007,
"P-U-R-R-S ...N' Pups Animal Rescue Team Inc.",smooch12345@aol.com,,"Riverdale",NJ,7457,
"Parsippany Animal Control & Animal Shelter",shelter@parpolice.com,973-263-7083,"Parsippany",NJ,7054,
"Paw It 4ward",adopt@pi4w.com,,"Cherry Hill",NJ,8003,
"PAWS - Montclair",info@pawsmontclair.org,(973) 746-5212,"Montclair",NJ,7042,
"Paws And Claws Society",cathouse@snip.net,,"Thorofare",NJ,8096,
"Paws and Whiskers",pawsandwhisker@yahoo.com,,"Somerset",NJ,8873,
"Paws for Peace",pawsforpeace@email.com,(732) 319-3980,"Middlesex",NJ,8846,
"Paws on the Green, Inc.",pawsonthegreen@yahoo.com,,"Edgewater",NJ,7020,
"Peace4Paws Inc.",peace4pawspresident@gmail.com,2012808696,"Westwood",NJ,7675,
"Pekingese Rescue Network Inc.",codoan@aol.com,,"Hillsdale",NJ,7642,
"Pennsville Animal Shelter",tlc00715@icloud.com,(609) 233-0889,"Pennsville",NJ,8070,
"Penny Angels Beagle Rescue",beagler534@comcast.net,(609) 965-9476,"Ventnor City",NJ,8406,
"Penny Lane Dog Adoption",feb4cem@optonline.net,,"Bridgewater",NJ,8807,
"People for Unwanted Feline Friends",puffcats@comcast.net,(908) 234-1273,"Peapack",NJ,7977,
"Pequannock Animal Shelter",peqshelter@gmail.com,973-835-3980,"Pompton Plains",NJ,7444,
"Perth Amboy Animal Shelter",animalshelter@perthamboynjpd.org,732 324-3877,"Perth Amboy",NJ,8861,
"Pet Adoption League",info@palpets.org,(973) 584-0095,"Hackettstown",NJ,7840,
"Pet Adoption Network",paninc@att.net,,"Red Bank",NJ,7701,
"Pet Agree Rescue of New Jersey",petagreerescue@aol.com,Please E-mail,"Forked River",NJ,8731,
"Pet Rescue of Mercer",petrescueofmercer@gmail.com,,"Hamilton",NJ,8619,
"Pet ResQ Inc.",petresqinc123@gmail.com,,"Tenafly",NJ,7670,
"Peyton's Place Animal Rescue",admin@peytonsplaceanimalrescue.org,,"Cherry Hill",NJ,8034,
"Pick Your Paw Animal Rescue",pickyourpaw@gmail.com,(908)433-1796,"Oceanport",NJ,7757,
"Pitties and Pals Rescue",pittiesandpalsrescue@yahoo.com,,"Jackson",NJ,8527,
"Pitty Rescue",info@pittyrescue.com,(201) 951-5079,"Bloomfield",NJ,7003,
"Plainfield Area Humane Society",contact.pahs@verizon.net,(908) 754-0300,"Plainfield",NJ,7063,
"PointerRescue Org",pointerdad@att.net,,"Bridgeton",NJ,8332,
"Pop-up Paws",popuppaws@gmail.com,(908) 463-2444,"Westfield",NJ,7090,
"Popcorn Park / AHS-Forked River",njhumane2@aol.com,609-693-1900,"Forked River",NJ,8731,
"Pound Dog Found Dog Rescue",peggy_kinahan@msn.com,,"Barnegat",NJ,8005,
"Precious Puppies",carolgrandmougin@gmail.com,,"Egg Harbor",NJ,8215,
"Puppies and More Rescue Adoption",puppiesandmore@yahoo.com,(856) 753-6538,"Marlton",NJ,8053,
"Puppy Love Pet Rescue",info@puppylovenj.com,(732) 914-0600,"Toms River",NJ,8755,
"Purely Positive Pets Animal Rescue",chfostermom@yahoo.com,(856) 417-2906,"Cherry Hill",NJ,8003,
"Purrfect Angels Cat Rescue",purrfectangels2@gmail.com,856-516-5963,"Turnersville",NJ,8012,
"Purrfect Cat Catchers",jbpcc09@gmail.com,,"Matawan",NJ,7747,
"Purrfect Feline Friends, Inc.",catherinepacak1@gmail.com,,"Howell",NJ,7731,
"Purrfect Pals, Inc.",danniwhiskers@optonline.net,,"East Hanover",NJ,7936,
"R and M Rockin' Rescues",mwheat@randmrockinrescues.org,(201) 675-2699,"Belleville",NJ,7109,
"Rabbit Haven by the Sea",rabbithaven123@aol.com,,"Atlantic Highlands",NJ,7716,
"Ramapo Bergen Animal Refuge",adoptlove@rbari.org,(201) 337-5180,"Oakland",NJ,7436,
"Randall's Rescue",support@randallsrescue.com,,"Mount Laurel",NJ,8054,
"Randolph Regional Animal Shelter",sunnynowell@hotmail.com,(973) 543-9333,"Mendham",NJ,7945,
"Rawhide Rescue",rawhiderescue@hotmail.com,,"Warren",NJ,7059,
"Ray of Hope",rayofhoperescue@gmail.com,,"East Brunswick",NJ,8816,
"Real Dog Rescue, Inc.",adopt@realdogrescue.org,(201) 632-3644,"Oakland",NJ,7436,
"Rebeccas Rescues",rebeccasrescues@yahoo.com,732-773-1007,"Brick",NJ,8723,
"Rescue Dogs Rock Animal Rescue",rdranimalrescue2014@gmail.com,6107331088,"Franklinville",NJ,8322,
"Rescue Haven Foundation",info@ferndog.org,,"Caldwell",NJ,7006,
"Rescue Me - Yorkie Rescue",yorkierescueme@gmail.com,(717) 264-9799,"Whiting",NJ,8759,
"Rescue Ridge",rescueridgeshelter@gmail.com,732-681-3450,"Spring Lake",NJ,7730,
"Rescue The Cats",rescuethecats@yahoo.com,(201) 376-4474,"Jersey City",NJ,7302,
"Rescue Without Borders",rescuewithoutborders@gmail.com,,"Monroe Twp",NJ,8831,
"Rogers Rescues",sheltercontact@rogersrescues.com,,"Clinton",NJ,8809,
"Rosemaries Rescue Ranch",susanrescue@aol.com,(973) 220-1900,"West Caldwell",NJ,7007,
"Ruff Rehab Inc",susan@ruffrehab.org,,"Pompton Lakes",NJ,7442,
"S.A.R.A. Inc.",sararescue@comcast.net,(908) 464-1203,"Berkeley Heights",NJ,7922,
"S.A.V.E. Shore Animal Volunteer Enterprise",saverescuegroups@gmail.com,(732) 831-4364,"Toms River",NJ,8753,
"S.O.S. PETS Inc.",sospetsinc@gmail.com,Please Email Us!,"Rockaway",NJ,7866,
"S.T.A.R.T., Save The Animals Rescue Team",info@startpets.net,(973) 785-1245,"Little Falls",NJ,7424,
"S&L Animal Rescue",endingthesadness@gmail.com,,"Pittstown",NJ,8867,
"Sad Eyes Animal Welfare Society",sadeyelittleguys@yahoo.com,,"Westville",NJ,8093,
"Safe and Sound Animal Rescue",priceless68@aol.com,8622686755,"Wantage",NJ,7461,
"Safe Haven Rabbit Rescue Inc.",adopt@safehavenrr.org,(908) 238-0814,"Clinton",NJ,8809,
"Safe Hounds Beagle Rescue, Inc.",info@safehounds.com,,"Blairstown",NJ,7825,
"Salem County Humane Society",info@salemcountyhumanesociety.org,856-299-2220,"Carneys Point",NJ,8069,
"Sammi's Voice Pit Bull Rescue",jimsvpbr@gmail.com,,"Browns Mills",NJ,8015,
"Sammy's Hope",contact@sammyshope.org,732-518-2313,"Sayreville",NJ,8872,
"Sarama Animal Rescue",saramarescue@gmail.com,,"Voorhees",NJ,8043,
"Save The Animals Rescue Team II",startkayne@gmail.com,201-797-8861,"Elmwood Park",NJ,7407,
"Save Us Dog Rescue",fries3@aol.com,(908) 510-8721,"Middlesex",NJ,8846,
"SAVE, A Friend to Homeless Animals",save@savehomelessanimals.org,(609) 309-5214,"Skillman",NJ,8558,
"Scales and Tails Exotic Pet Rescue",larry@scalesandtails.org,,"Randolph",NJ,7869,
"Scarlet Paws Animal Welfare Network",mcancio@comcast.net,609-575-5428,"Plainsboro",NJ,8536,
"Scottish Terrier Club of Greater New York Rescue",ecerny@optonline.net,(973) 361-6790,"Rockaway",NJ,7866,
"Second Chance Pet Adoption League",njwoof@cs.com,(973) 208-1054,"Oak Ridge",NJ,7438,
"Sedona Shepherd Sanctuary",contact@sedonashepherd.com,(646) 228-5494,"Millburn",NJ,7041,
"See Spot Rescued",seespotrescued@gmail.com,,"Jersey City",NJ,7302,
"Shelter Survivors",sheltersurvivors@live.com,Email only,"Bridgewater",NJ,8807,
"Sherry's Place Rescue",sherrysplacerescue@gmail.com,(215) 497-9362,"Newfield",NJ,8344,
"Sheryls Den",sherylsden@optonline.net,,"West Milford",NJ,7480,
"Smitten By Kittens",smittenbykittens@gmail.com,Please email us,"Morristown",NJ,7960,
"SNORT (Short Noses Only Rescue Team)",snortrescue@yahoo.com,(347) 766-7812,"Hoboken",NJ,7030,
"Somerset Regional Animal Shelter",somersetregionalanimalshelter@aol.com,908-725-0308,"Bridgewater",NJ,8807,
"South Jersey  Rescue",admin@southjerseyrescue.com,856 294 7279,"Mount Royal",NJ,8061,
"Southern Paws Inc.",southernpawsrescue@gmail.com,973-556-5885,"Ringwood",NJ,7456,
"St. Hubert's Animal Welfare Center - North Branch",afalcone@sthuberts.org,(908)526-3330,"Branchburg",NJ,8876,
"St. Huberts - Noah's Ark",klehner@sthuberts.org,,"Ledgewood",NJ,7852,
"St. Huberts Animal Welfare Center- Madison",emanwiller@sthuberts.org,(973) 377-2295,"Madison",NJ,7940,
"Tabby's Place",info@tabbysplace.org,(908) 237-5300,"Ringoes",NJ,8551,
"Tails of Hope",adopt@tailsofhopenj.com,732-660-8440,"Oakhurst",NJ,7755,
"Taming Gracie",taminggracie@live.com,,"Sicklerville",NJ,8081,
"The Animal Clinic of Millville",natalielatorre@gmail.com,,"Millville",NJ,8332,
"The Cat's Meow Rescue Group",thecatsmeownj@gmail.com,,"Riverton",NJ,8077,
"The Chicken Refuge",info@thechickenrefuge.org,,"Whitehouse Station",NJ,8889,
"The Grayter Good Weimaraner Rescue",pmacdonald@thegraytergood.org,802-464-9489,"Hoboken",NJ,7030,
"The Humane Society of Atlantic County",shelter@humanesocietyac.org,(609) 347-2487,"Atlantic City",NJ,8401,
"The Last Resort",thelastresortrescue@gmail.com,,"Hewitt",NJ,7421,
"The Lucky Cat Rescue",theluckycatrescue@gmail.com,,"Weehawken",NJ,7087,
"The National Foundation for Animal Rescue",contact@nffar.org,877 554-8787,"Saddle River",NJ,7458,
"The Oasis Animal Sanctuary Inc.",oasisanimalsanct@yahoo.com,856-262-1222,"Williamstown",NJ,8081,
"The Riley Rescue",info@therileyrescue.com,,"Bellmawr",NJ,8031,
"The Volunteer Auxiliary For Animal Shelters Inc.",volaux@yahoo.com,732-341-9959,"Jackson",NJ,8527,
"Three Little Kittens Inc.",kittensthree@optonline.net,732-988-3024,"Asbury Park",NJ,7712,
"Thrifty Kitty, Inc.",thriftykitty@msn.com,(609) 287-9121,"Oceanville",NJ,8231,
"Tiny Paws Rescue Inc",adopt.tinypawsrescue@gmail.com,856.818.3877,"Cinnaminson",NJ,8077,
"TLC Animal Rescue",tlcaradoptions@hotmail.com,,"Millville",NJ,8332,
"To The Rescue - An Animal Lifesaving Corporation",steve@totherescue-nj.org,2015007372,"Ocean",NJ,7712,
"Toms River Township Animal Facility",rbarbosa@tomsrivertownship.com,732-341-1000 Ext. 7300,"Toms River",NJ,8753,
"TravelingPaws",traveling4paws@yahoo.com,ooo-ooo-oooo,"Cranford",NJ,7016,
"Trenton Animal Shelter",thleas.dogs@gmail.com,(609) 989-3254,"Trenton",NJ,8609,
"Trenton Cats Rescue",inquiries@trentoncats.org,(857) 228-8696,"Trenton",NJ,8618,
"Tri State Weimaraner Rescue Inc",info@tristateweimrescue.org,(908) 751-3140,"Phillipsburg",NJ,8865,
"Tri-Boro Animal Welfare",info@tbaw.org,973-831-5555,"Butler",NJ,7405,
"Tri-State Basset Hound Rescue Inc.",lpacker458@msn.com,814-482-0651,"Pennsville",NJ,8070,
"Tribbles Rabbit Rescue",tribblesrabbitrescue@gmail.com,(856) 534-9569,"Gibbsboro",NJ,8026,
"Union City Feral Cat Committee",portes@bestpjm.com,201-723-2457,"Union City",NJ,7087,
"Voorhees Animal Orphanage",info@theanimalorphanage.org,856-627-9111,"Voorhees",NJ,8043,
"Wag On Inn Rescue",wagoninnrescue@yahoo.com,,"Oakhurst",NJ,7755,
"Wantage Pound",wantagedogpound@yahoo.com,973-875-9390,"Wantage",NJ,7461,
"Watchung Mountain Poodle Club Rescue",anitamckenna@hotmail.com,,"Flemington",NJ,8822,
"West Jersey Volunteers for Animals",wjvolunteers@yahoo.com,(856) 728-3004,"Woodbury",NJ,8096,
"West Milford Animal Shelter",thewmass@hotmail.com,(973) 728-2859,"West Milford",NJ,7480,
"West Orange Animal Welfare League",woawl01@aol.com,973-736-8689,"West Orange",NJ,7052,
"West Orange TNVR",wotnvr@gmail.com,,"West Orange",NJ,7052,
"Whiskers and Wags-4-Adoption",4everscoopin@comcast.net,908 822-9662,"North Plainfield",NJ,7063,
"White Boxer Rescue, LLC",otisnco@whiteboxerrescue.com,856-785-3140,"Port Elizabeth",NJ,8204,
"Willy's Wabbits",tam.wil@verizon.net,,"Hillside",NJ,7205,
"Wilma's Orphans Inc",wilma@wilmasorphans.com,(516) 641-1288,"Jackson",NJ,8527,
"Wise Animal Rescue",wiserescueapplications@gmail.com,,"Parsippany",NJ,7054,
"Woodbridge Township Animal Control",animalshelter@twp.woodbridge.nj.us,(732) 855-0600 ext. 2034,"Woodbridge",NJ,7095,
"Woof Love Animal Rescue, Inc",info4woofloverescue@gmail.com,,"Collingswood",NJ,8108,